,Id,Name,Zone,Description,Tel,Add,Region,Town,Travellinginfo,Opentime,Picdescribe1,Px,Py,Orgclass,Ticketinfo,Remarks,Keyword,seg
3,3,水璉、牛山海岸,,"水璉位在花蓮縣壽豐鄉海濱，為阿美族世居之地，早在3,500年前即有繩紋陶文化之先民居住於此。而座落在水璉南方海灘的牛山，阿美族稱此地為Hudin(呼定)，意即大片草地的牧場，此地植物群相豐富，幾乎是東部海岸植物相的縮影，已被劃定為自然生態保護區，綿延數公里的沙灘細緻溫潤，更是絕佳美景，彷彿一片臨海的秘密樂園。",886-3-8601400,花蓮縣974壽豐鄉牛山39之5號,花蓮縣,壽豐鄉,南下：於花蓮火車站前的花蓮客運，搭乘往豐濱、成功方向的海線班車，經花蓮大橋，約40～50分鐘，即可抵達水璉。北上：自台東火車站前，搭乘往花蓮方向的海線班車，經磯崎後、芭崎、蕃薯寮後，在水璉下車。詳細時刻表及車資請洽花蓮客運(查詢電話：03-8338146~8)或鼎東客運海線(查詢電話：089-328629 / 089-333443),每日10:00-18:00,當整個東海岸被層層的消坡塊鎖住時，綿延兩公里長的水璉牛山，卻散發出難能可貴的自然光采,121.5694,23.76344,,牛山呼庭園區需付50元門票，可抵用飲品。,東海岸的石頭雖美，但請切勿撿取。走米棧古道，記得帶瓶水解渴。,,"['阿美族', '水璉位', '花蓮縣', '壽豐鄉', '海濱', '500', '繩紋陶', '水璉', '海灘', 'Hudin', '呼定', '牧場', '群相', '豐富', '幾乎', '東部', '縮影', '劃定', '生態', '保護區', '綿延數', '沙灘', '絕佳', '臨海', '樂園', '牛山', '植物', '座落在', '世居', '美景', '意即', '先民', '草地', '海岸', '大片', '之地', '年前', '居住', '秘密', '南方', '公里', '一片', '文化', '自然']"
4,4,石梯坪,,石梯坪位在花蓮縣豐濱鄉石梯灣的南側，整個區域是一個面積極大的海岸階地，海蝕地形十分發達，海蝕平台、隆起珊瑚礁、海蝕溝、海蝕崖等比比皆是，尤其是壺穴景觀更是堪稱台灣第一。遊客可在此在此觀察潮間帶豐富生態或從事潛水活動，亦可選擇在設備完善的露營區夜宿。石梯坪主要族群是阿美族，夏天的捕魚祭和豐年祭為此處的主要活動，此處同時也是台灣賞鯨的發源地。【石梯坪工作站】電話：03-8781452   【石梯坪露營區】電話：03-8781599,886-3-8781452,花蓮縣977豐濱鄉石梯坪52號,花蓮縣,豐濱鄉,南下：由花蓮火車站前搭往成功、靜浦或台東等地的花蓮、鼎東客運海線班車，在石梯坪下車。 北上：由台東火車站前搭往花蓮的鼎東、花蓮客運海線班車，在石梯坪下車。 詳細時刻表及車資請洽花蓮客運(查詢電話：03-8338146~8 )或鼎東客運海線(查詢電話：089-328629 / 089-333443),全天候開放露營電話預約時間：09:00~18:00電話：0922-211336 呂先生,宛如鬼斧神工般的石梯坪海蝕地形,121.51173,23.48525,,大型車：假日200元、非假日170元小型車：假日60元、非假日50元機車：假日20元、非假日15元,1.石梯坪沒有遮陽設施，海邊日照強，要做好防曬；裝備也要齊全，除了遮陽的帽子、長褲、長袖，解渴的開水更不可少。2.初次造訪，建議沿木棧道前行，從第一座木造涼亭旁的石板步道下去，約2...,,"['石梯', '海蝕', '活動', '露營區', '此處', '電話', '03', '阿美族', '坪位', '花蓮縣', '豐濱', '灣的', '南側', '整個', '區域', '面積', '極大', '階地', '發達', '海蝕溝', '是壺', '穴景觀', '堪稱', '台灣', '遊客', '觀察潮間', '豐富', '生態', '潛水', '選擇', '設備', '捕魚', '豐年', '祭為', '同時', '台灣賞', '8781452', '8781599', '族群', '夜宿', '工作站', '源地', '比比皆是', '珊瑚礁', '隆起', '亦可', '海岸', '主要', '夏天', '地形', '平台', '完善', '尤其', '第一']"
5,5,長虹橋,,長虹橋橫跨秀姑巒溪，連接靜浦與港口兩聚落，亦是秀姑巒溪泛舟的終點站；橋分新舊兩座橋，新橋採鮮艷亮眼的橙紅色，橋面規劃有快慢車道分隔的腳踏車及人行專用步道，並配合泛舟活動，設置了八座觀景台；橋上可遠眺出海囗的奚卜蘭島，因登島不易，島上仍維持原始林樣貌，俯瞰河面可見許多潔白如玉的大岩塊，其為巨型石灰岩，因其石潔白如玉，因而得到了「秀姑漱玉」的美名。,886-3-8671326,花蓮縣977豐濱鄉台11線68公里處,花蓮縣,豐濱鄉,南下：由花蓮火車站前搭往成功、靜浦或台東等地的花蓮、鼎東客運海線班車，在長虹橋站下車，再依指標前往即可抵達。北上：由台東火車站前搭往花蓮的鼎東、花蓮客運海線班車，在長虹橋站下車，再依指標前往即可抵達。詳細時刻表及車資請洽花蓮客運(查詢電話：03-8338146~8 / 花蓮汽車客運公司),全天候開放,橫跨秀姑巒溪，連接靜浦與港口兩聚落的新長虹橋,121.48904,23.46845,,免費,,,"['姑巒', '白如玉', '泛舟', '大岩', '步道', '橋橫', '跨秀', '連接', '靜浦', '終點', '橋分', '新舊', '兩座橋', '新橋', '採鮮艷', '紅色', '橋面', '規劃', '車道', '腳踏車', '專用', '活動', '設置', '觀景台', '橋上', '可遠眺', '奚卜蘭島', '因登島', '島上', '仍維持', '樣貌', '許多潔', '其為', '石潔', '秀姑漱玉', '八座', '原始林', '亮眼', '美名', '俯瞰', '河面', '聚落', '人行', '快慢', '分隔', '巨型', '出海', '石灰岩', '因其', '不易', '港口', '配合', '因而', '得到']"
6,6,北回歸線,,北回歸線標碑位在北緯23.5度，是太陽直射地球的北界，也是亞熱帶與熱帶的分界。靜浦的北回歸線標碑在台11線公路70.5公里處，是北回歸線途經台灣的最東界。聳立在太平洋旁的白色塔身，十分吸引遊客目光。,886-3-8671326,花蓮縣977豐濱鄉台11線70.5公里處,花蓮縣,豐濱鄉,南下：由花蓮火車站前搭往成功、靜浦或台東等地的花蓮、鼎東客運海線班車，在北回歸線標碑下車。北上：由台東火車站前搭往花蓮的鼎東、花蓮客運海線班車，在北回歸線標碑下車。詳細時刻表及車資請洽花蓮客運(查詢電話：03-8338146~8 / 花蓮汽車客運公司),全年開放,北回歸線標碑,121.49617,23.45141,,免費,1.北回歸線位於北緯23.5度，它是太陽直射地球的北界；換言之，夏至時太陽沿著此緯度線東昇西落，這座標碑特地設計一個細縫，讓遊客可以透過這座建築觀察這種現象。2.在北回歸線附近有知...,,"['北回', '歸線', '標碑', '北緯', '23.5', '太陽', '亞熱帶', '熱帶', '靜浦', '11', '70.5', '途經', '台灣', '東界', '聳立', '遊客', '塔身', '直射', '北界', '分界', '太平洋', '白色', '目光', '地球', '吸引', '公里', '公路']"
26,26,花蓮遊客中心,,沿著台11線走，順著蜿蜒的道路來到東海岸風景區最北端的花蓮遊客中心，坐落於山坡上的遊客中心，內部設有全區自然、人文資源及東部海岸沿線旅遊據點的展示室，以及可容納81人的多媒體簡報室，在出發遊玩東海岸前，不妨來到這裡諮詢相關旅遊資訊。面向遼闊太平洋的花蓮遊客中心，擁有絕佳的視野，讓人能夠遠眺一望無際的蔚藍海洋，享受這番眼前的無敵海景，每到4-5月時，在遊客中心旁的水塘山坡開滿了鐵砲百合，沿著周邊景觀步道，縱覽花海在微風中搖曳波動，如畫般的景致令人相當陶醉。由遊客中心往北可到海岸山脈北界所在的嶺頂岬，在此可一覽花蓮溪與太平洋交會，所激起的「洄瀾」美景，因此花蓮港昔日又名「洄瀾港」。,886-3-8671326,花蓮縣974壽豐鄉鹽寮村大坑5號,花蓮縣,壽豐鄉,南下：於花蓮火車站前的花蓮客運，搭乘往豐濱、靜浦，或是台東方向的海線班車，抵達遠雄海洋公園後步行至北側的花蓮遊客中心，車程約35分鐘。北上：自台東火車站前，搭乘往花蓮方向的海線班車，經水璉後、和南寺後，在海洋公園下車後步行至北側的花蓮遊客中心。詳細時刻表及車資請洽花蓮客運(查詢電話：03-8338146~8 / 花蓮汽車客運公司),星期日: 08:30 - 17:00星期一: 08:30 - 17:00星期二: 08:30 - 17:00星期三: 08:30 - 17:00星期四: 08:30 - 17:00星期五: 08:30 - 17:00星期六: 08:30 - 17:00,鳥瞰花蓮遊客中心,121.60241,23.90455,,,,,"['海岸', '中心', '花蓮遊客', '遊客', '山坡', '展示室', '太平洋', '沿著台', '11', '順著', '風景區', '內部', '全區', '資源', '東部', '沿線', '旅遊據點', '可容納', '81', '媒體', '簡報', '發遊', '玩東', '詢相關', '旅遊', '遼闊', '絕佳', '視野', '遠眺', '無際', '這番', '無敵', '開滿', '沿著', '周邊', '景觀步', '縱覽', '微風', '中搖曳', '波動', '如畫', '由遊客', '山脈', '花蓮溪', '交會', '洄瀾', '花蓮港', '洄瀾港', '花海', '海景', '水塘', '北界', '美景', '景致', '往北', '百合', '可到', '陶醉', '北端', '一望', '蜿蜒', '人文', '昔日', '激起', '面向', '又名', '不妨', '般的', '海洋', '所在', '享受', '道路', '自然']"
27,27,秀姑巒溪遊客中心,,秀姑巒溪遊客中心位於花東縱谷瑞穗大橋旁，是秀姑巒溪泛舟活動的起點，遊客中心建築外觀仿自原住民傳統建築，中心前廣場還有一巨大的原住民雕像，造型相當別緻；影片播放室播放泛舟安全影片，遊客中心並設有露營區，每逢泛舟季節，遊客如織。,886-3-8875400,花蓮縣978瑞穗鄉中山路三段215號,花蓮縣,瑞穗鄉,南下：由花蓮火車站前搭往富里、玉里的班車，在瑞穗站下車。 北上：由台東火車站前搭往花蓮的山線班車，在瑞穗站下車。 詳細時刻表及車資請洽花蓮客運(查詢電話：03-8338146~8 / 花蓮汽車客運公司),全天候開放,秀姑巒溪遊客中心最吸引人注意的，就是門口那原住民的雕像，造型十分的討喜,121.4012,23.48888,,,,,"['遊客', '泛舟', '原住民', '建築', '中心', '播放', '影片', '秀姑巒', '花東', '縱谷', '大橋', '姑巒', '活動', '起點', '外觀', '仿自', '傳統', '前廣場', '有露', '營區', '季節', '如織', '瑞穗', '雕像', '造型', '安全', '巨大']"
33,33,奚卜蘭遊客中心(新太平洋一號店),,2015年10月2日，「新太平洋一號店」於原本奚卜蘭遊客中心隆重開幕，由在東海岸深耕多年的雅比斯團隊進駐，邀請台東排灣族傑出青年設計師謝聖華取用部落元素發想，以溫暖的木造進行設計，不僅提供原有遊客中心功能，更營造嶄新空間，加入書店與咖啡店複合經營，並作為部落工藝及產物展售平台、東海岸部落資訊交流分享之處。未來也將陸續推出不同形式之交流活動，讓空間得以活化，挖掘東海岸的在地故事，激盪更多創意，作為東海岸面向世界的交流基地，傳達屬於東海岸部落的新太平洋式生活。這不僅是部落工作假期志工朋友的家，對遊客更是一處好休憩點，路過這裡，別忘了進來坐坐！,886-3-8781218,花蓮縣977豐濱鄉靜浦村靜浦8-1號,花蓮縣,豐濱鄉,南下：於花蓮火車站前的花蓮客運，搭乘往靜浦，或是台東方向的海線班車，抵達靜埔後即可見奚卜蘭遊客中心。北上：自台東火車站前，搭乘往花蓮方向的海線班車，經長濱後，在靜浦站下車後即可前往奚卜蘭遊客中心。 詳細時刻表及車資請洽花蓮客運(查詢電話：03-8338146~8 / 花蓮汽車客運公司),,外型搶眼的奚卜蘭遊客中心,121.48854,23.46663,,,,,"['海岸', '部落', '遊客', '空間', '交流', '太平洋', '2015', '一號', '奚卜蘭', '開幕', '團隊', '進駐', '邀請', '台東', '排灣族', '傑出', '設計師', '謝聖華', '發想', '以溫', '木造', '進行', '設計', '更營造', '書店', '合經營', '並作', '工藝及', '產物', '展售', '之處', '未來', '將陸續', '活動', '激盪', '創意', '作為', '傳達屬', '這不僅', '志工', '對遊客', '路過', '進來', '面向世界', '比斯', '咖啡店', '深耕', '取用', '休憩', '中心', '活化', '坐坐', '假期', '隆重', '分享', '挖掘', '元素', '原本', '原有', '得以', '青年', '平台', '故事', '加入', '朋友', '推出', '多年', '功能', '形式', '生活', '不同', '工作']"
38,38,鹽寮,,鹽寮村位於花蓮縣壽豐鄉，早期花蓮港附近食用鹽於此煮製，日治時期即有「鹽寮港」之名，本來屬水璉村，1964年7月獨立成村。鹽寮村東臨太平洋，由於海岸狹長，夏季涼爽宜人，甚具觀光之開發價值，村內人文景觀擁有東部海岸國家風景區、遠雄海洋公園、和南寺等，早期村內以農耕、捕魚為業，農產有花生、香茅油、甘藷等；魚產以烏魚苗及龍蝦為主，現以觀光民宿為主。,886-8-9841520,花蓮縣974壽豐鄉鹽寮村,花蓮縣,壽豐鄉,南下：於花蓮火車站前搭乘花蓮客運，往豐濱、靜浦，或是台東方向班車，均可抵達，車程約40分鐘。 北上：自台東火車站前搭往花蓮方向的海線班車，經蕃薯寮、水璉後，在河南寺或鹽寮站下車。 詳細時刻表及車資請洽花蓮客運(查詢電話：03-8338146~8),全天候開放,鹽寮,121.6038,23.90294,,無,1.提醒遊客到此地遊玩時，務必珍惜美麗的自然環境，勿撿拾海邊的石頭、貝殼或出現丟棄垃圾、破壞珊瑚礁等行為。2.夏季天氣炎熱，務必做好防曬。3.遇颱風季節天候不佳、風浪大時，請勿觀浪...,,"['觀光', '村內', '海岸', '香茅油', '早期', '村位', '花蓮縣', '壽豐鄉', '花蓮港', '日治', '時期', '本來', '屬水璉', '1964', '獨立', '成村', '東臨', '狹長', '涼爽', '甚具', '之開', '發價值', '觀擁', '東部', '國家', '風景區', '遠雄', '公園', '南寺', '農耕', '捕魚', '為業', '農產有', '甘藷', '魚產以', '烏魚', '苗及', '現以', '民宿', '為主', '文景', '宜人', '之名', '花生', '食用', '夏季', '太平洋', '海洋']"
94,94,新光兆豐休閒農場,,大眾運輸點此連結&gt;&gt;&gt;台灣好行-縱谷花蓮線資訊(時刻表/票價表)無障礙公車預約&gt;&gt;&gt;&gt;台灣好行無障礙預約資訊深受小朋友歡迎的新光兆豐休閒農場，設有多種遊樂設施、放牧區、生態鳥園、鸚鵡園等，來到這裡可看見孔雀在農場中漫步，並能夠近距離拿著奶瓶餵小牛，而廣大遼闊的青青草原可以讓人盡情跑跳，不僅如此，夏日還有開放戲水區，還能令大人小孩快樂地打水仗，度過歡樂的時光。被群山圍繞的兆豐農場，是一座水美草豐、生氣盎然的休閒渡假農場，鮮美的牧草生產出優質的鮮奶，製作出好吃的奶酪、鮮奶冰淇淋，廣受旅客的喜愛。除了吃鮮奶製作的甜點、看乳牛之外，這裡也有壯觀的歐式花園、一年四季皆呈現不同風情的花海，以及二子山溫泉，讓人享受多種的休閒活動。沿著農場中的步道騎著電動車或鐵馬，...,886-3-8771410,花蓮縣975鳳林鎮林榮里永福街20號,花蓮縣,鳳林鎮,,08:00-17:00,壯觀的歐式花園,121.46304,23.802,,1.全票：$350元2.優待票：$250元（13歲(含)以上至18歲以下青少年、65歲以上老人）3.學童票：$200元（6歲-12歲(含)之童）4.博幼票：$175元（身障朋友及陪...,來農場騎乘協力車逛逛吧，除了放鬆心情，和朋友或家人一同享受悠閒的陽光午後之外，還有好多可愛的小動物們在農場歡迎你喔~,,"['gt', '農場', '台灣', '好行', '無障礙', '預約', '多種', '休閒', '鮮奶', '打水仗', '的花海', '步道', '跑跳', '渡假', '大眾', '運輸點', '此連結', '縱谷', '花蓮線', '時刻表', '票價表', '公車', '歡迎', '豐休', '閒農場', '遊樂', '設施', '生態', '鳥園', '鸚鵡園', '並能夠', '離拿著', '而廣大', '遼闊', '青青草原', '盡情', '開放戲', '水區', '快樂地', '度過', '歡樂', '時光', '圍繞', '豐農場', '水美草豐', '生氣', '美的', '生產出', '優質', '廣受', '吃鮮', '壯觀', '歐式', '花園', '呈現', '風情', '二子山', '溫泉', '活動', '沿著', '騎著', '電動車', '鐵馬', '...', '奶瓶', '乳牛', '新光', '冰淇淋', '盎然', '奶酪', '小朋友', '近距', '漫步', '夏日', '一年四季', '小牛', '牧草', '群山', '孔雀', '放牧', '好吃', '旅客', '深受', '小孩', '享受', '大人', '一座', '作出', '如此', '不同']"
95,95,鳳凰山莊(賽斯村),,環境清幽的鳳凰山莊(賽斯村)，位在客家庄鳳林鎮西側鳳林溪上游地區，擁有露營區、烤肉場等設施，並也提供旅人住宿、購物、享用餐點，週邊青山環抱、溪水潺潺，臨近鳳凰瀑布與鳳林溪，十分適合來一趟自然生態旅遊。鳳凰山莊原本是鳳林地區的水源地，水質清澈甘甜，並擁有原始的自然風貌，伴著鳳林溪潺潺流水，跟著標示往山邊前進，可以看見秀麗的鳳凰瀑布，猶如一條銀絲帶般懸掛於10公尺高的山壁上，空氣間瀰漫著負離子，清淺的水潭冰涼透徹，是一處極富野趣的遊憩勝地，因此鳳林鎮公所早年將此區規劃為鳳凰瀑布風景區，為炎炎夏日帶來一絲沁涼。在花東縱谷國家風景區成立後，便將此地規劃為發展自然生態旅遊與心靈探索的遊憩區，利用鳳凰山莊原有的建築，增設露營區、烤肉場及其他相關設施，而賽斯村每月都有規劃各種的心靈探索活動，希望為造訪花東...,886-3-8764797,花蓮縣975鳳林鎮鳳凰路300號,花蓮縣,鳳林鎮,,08:30~17:30,鳳凰山莊(賽斯村),121.42556,23.75669,,,鳳凰山莊兼具遊憩休閒和心靈放鬆之功能，加上山莊內規劃完善的多樣設施，是個值得一遊的好地方喔！前往鳳凰瀑布的步道較為原始自然、人煙稀少，建議穿好防滑的鞋子，夏季請記得準備防蚊液。,,"['鳳凰山莊', '鳳林溪', '鳳凰', '規劃', '賽斯村', '露營區', '設施', '生態', '旅遊', '風景區', '花東', '心靈', '瀑布', '烤肉', '自然', '探索', '潺潺流水', '環境', '庄鳳林鎮', '西側', '地區', '場等', '並也', '購物', '餐點', '週邊', '環抱', '臨近', '適合來', '區的', '水質', '並擁', '風貌', '伴著', '標示', '往山邊', '前進', '看見秀麗', '猶如', '銀絲', '帶般', '懸掛', '空氣間', '漫著', '負離子', '清淺', '冰涼', '透徹', '極富', '遊憩', '勝地', '鳳林鎮', '將此區', '帶來', '一絲沁涼', '縱谷', '國家', '便將', '發展', '的遊', '憩區', '建築', '增設', '相關', '各種', '活動', '造訪', '...', '炎炎夏日', '野趣', '旅人', '水源地', '客家', '甘甜', '公所', '潺潺', '清幽', '山壁', '水潭', '溪水', '青山', '享用', '住宿', '林地', '清澈', '一趟', '每月', '早年', '原本', '原有', '原始', '上游', '及其', '希望', '成立']"
96,96,菸樓文化聚落,,菸樓文化聚落是國際慢城-鳳林的特色之一，也是全臺保留最完整的菸樓群，外觀呈現和洋風格的菸樓，像是童話故事般會出現的建築。每逢農曆七月時，這裡開始舉辦鳳林菸樓迷路-百鬼夜行祭，不僅吸引各地觀光客、年輕人參加，也成為專屬鳳林菸樓的創意活動。菸樓建於日治時期，當時菸葉被稱作綠金，是高經濟價值的作物，菸樓的數量成為富裕程度的指標。菸樓的形式可分為大阪式與廣島式2種，而鳳林菸樓幾乎都是大阪式的。大阪式菸樓的排煙口凸出屋頂，既高且大，排煙效果較好，但是因為受風面較大，因此遇到颱風時容易被吹壞；廣島式菸樓則剛好相反，排煙口緊貼屋頂，雖然比較不怕颱風，卻容易發生火災。來到鳳林這座慢城小鎮，除了一嚐在地小吃、走走校長夢工廠之外，不妨走入大榮一村、二村，欣賞鳳林獨特的菸樓群，或是到菸樓圖書館，了解當年菸葉的風華...,886-3-8875306,花蓮縣975鳳林鎮大榮里及北林里,花蓮縣,鳳林鎮,,建議白天前往參觀,徐家興菸樓是保存完整的菸樓之一,121.45681,23.7443,,免費,1.建議白天前往參觀，避免打擾到居民休息2.農曆七月時，會舉辦鳳林菸樓迷路-百鬼夜行祭的活動,,"['鳳林', '大阪', '樓群', '廣島式', '排煙口', '屋頂', '國際', '慢城', '外觀', '現和洋', '風格', '童話', '般會', '出現', '建築', '開始舉', '辦鳳林', '百鬼', '觀光客', '輕人', '參加', '專屬', '創意', '活動', '樓建', '日治', '時期', '綠金', '高經濟', '價值', '數量', '指標', '而鳳林', '幾乎', '既高且', '排煙', '因為', '受風面', '風時', '樓則', '剛好', '緊貼', '雖然', '這座', '慢城小鎮', '校長', '工廠', '大榮', '二村', '欣賞', '獨特', '圖書館', '風華', '...', '容易', '一村', '生火', '夜行', '凸出', '迷路', '聚落', '小吃', '走入', '走走', '可分', '富裕', '七月', '作物', '不妨', '不怕', '特色', '保留', '完整', '像是', '相反', '吸引', '遇到', '故事', '效果', '各地', '程度', '了解', '文化', '形式', '但是']"
97,97,箭瑛公園,,鳳林鎮大榮里與山興里之間隔著花蓮溪，自古以來枯水期時，這兒僅有一座竹子搭的便橋供人通行。民國66年夏天，因為颱風過境，竹橋被洪水沖毀。當時服務於山興國小的教務主任陳國義與張箭、鄧玉瑛、林寶炫等3位老師為了到校上課，即使河水湍急，他們仍手牽著手打算渡河。不幸在途中失足落水，其中張箭與鄧玉瑛2位老師更不幸溺斃殉職。當年這個消息撼動全國，大家均極為感佩偏遠地區教師們堅毅奉獻的精神，時任行政院長的蔣經國先生得知此一消息後，決定撥款興建一座水泥大橋，改善山興里的對外聯絡交通，並將此橋命名為「箭瑛大橋」，以紀念張箭與鄧玉瑛這兩位因公犧牲生命的老師。後來，這個故事被拍攝成電影「箭瑛大橋」後，兩位老師為學子犧牲奉獻的偉大精神更是家喻戶曉，連帶的也提高了鳳林地區的知名度。鳳林鎮公所為了紀念張箭與鄧玉瑛兩位老師...,886-3-8875306,花蓮縣975鳳林鎮,花蓮縣,鳳林鎮,,全天,箭瑛公園,121.49118,23.73134,,免費,,,"['張箭', '鄧玉瑛', '大橋', '老師', '鳳林鎮', '山興里', '位老師', '這個', '奉獻', '箭瑛', '犧牲', '兩位', '不幸', '失足落水', '一座', '大榮里', '隔著', '花蓮溪', '以來', '這兒僅', '橋供', '民國', '66', '因為', '過境', '竹橋', '服務', '山興國', '教務', '國義與', '林寶炫', '上課', '他們', '仍手', '牽著手', '溺斃', '殉職', '撼動', '全國', '極為', '偏遠', '地區', '教師們', '堅毅', '時任', '蔣經國', '決定', '撥款', '興建', '外聯絡', '並將', '此橋', '以紀念', '這兩位', '攝成', '電影', '學子', '偉大', '家喻', '戶曉', '連帶', '區的', '紀念', '...', '精神', '到校', '感佩', '此一', '因公', '消息', '公所', '枯水期', '竹子', '行政院', '湍急', '知名度', '林地', '渡河', '途中', '河水', '通行', '洪水', '自古', '命名', '得知', '夏天', '水泥', '打算', '生命', '故事', '交通', '改善', '主任', '即使', '先生', '大家', '提高']"
98,98,瑞穗泛舟服務中心,,說到花東地區的水域活動，最具知名度也最刺激的非「秀姑巒溪泛舟」莫屬了。在民國70年代，秀姑巒溪就已成為國內泛舟活動的首選之地。每到夏天泛舟旺季，從瑞穗大橋至長虹橋，全程24公里的泛舟河段上，只見一艘艘紅艷艷的橡皮艇將整段河道妝點得綺麗動人。20多處難度不一的激流與險灘，帶給泛舟遊客充滿驚險與刺激的難忘旅遊經驗，而秀姑巒溪沿途的峽谷與奇岩等自然美景，無不烙印在泛舟客的心頭，久久難以忘懷。沿著溪畔繞山而行的瑞港公路上，更有數不清的廂型車，來回穿梭於兩地之間接駁載客。東海岸國家風景區管理處在瑞穗大橋南側的秀姑巒溪畔，設立了瑞穗泛舟服務中心。在這棟仿原住民傳統建築外觀的服務中心裡，除了介紹秀姑巒溪泛舟河段的生態資源、提供遊客泛舟相關資訊、播放泛舟安全影片之外，還附設有露營區。在泛舟活動季節裡，為遊客...,886-3-8875400,花蓮縣978瑞穗鄉瑞良村中山路3段215號 (瑞穗火車站前直走大約5公里於193線88k處),花蓮縣,瑞穗鄉,,8:30 - 17:00,瑞穗泛舟服務中心,121.39985,23.48745,,,,,"['泛舟', '遊客', '姑巒', '瑞穗', '溪畔', '活動', '秀姑巒', '大橋', '服務', '河段', '原住民', '奇岩', '花東', '地區', '莫屬', '民國', '70', '為國內', '首選', '至長', '虹橋', '24', '只見', '紅艷艷', '妝點', '綺麗動', '20', '多處', '難度', '險灘', '帶給', '充滿', '驚險', '旅遊', '經驗', '而秀', '峽谷', '心頭', '難以', '忘懷', '沿著', '繞山', '瑞港', '數不清', '廂型車', '兩地', '接駁', '載客', '國家', '風景區', '南側', '設立', '這棟', '傳統', '建築', '外觀', '介紹秀', '生態', '資源', '相關', '還附設', '有露', '營區', '活動季', '節裡', '...', '整段', '橡皮艇', '刺激', '中心', '烙印', '美景', '穿梭', '激流', '播放', '知名度', '全程', '久久', '一艘', '旺季', '已成', '而行', '最具', '水域', '影片', '河道', '海岸', '夏天', '公里', '公路', '安全', '自然', '年代', '管理']"
99,99,瑞穗、紅葉地區溫泉,,瑞穗地區溫泉、紅葉地區溫泉與安通地區溫泉為花蓮3大溫泉區，其中略帶金黃色的瑞穗地區溫泉有著生男之泉的美名；而較靠近山區的紅葉地區溫泉，水質清澈毫無味道，這兩種歷史悠久的溫泉搭配周遭環境清幽，加上這裡也提供不同價位、風格的湯屋或溫泉民宿，深深吸引不少旅客前往泡湯，消除一身的疲憊，享受冬日獨有的幸福溫度。(圖片來源：趙家慶攝影師提供)早在1919年被日本人開發的瑞穗溫泉，當時被稱作滴翠閣，為當年數一數二的高級度假旅館。瑞穗溫泉屬於弱鹼性的「氯化物碳酸鹽泉」，當泉水中的鐵質遇到空氣氧化後，會在水面形成一層略帶鐵鏽味的黃濁色結晶物，稱為「湯花」或「溫泉花」，因此被也稱作黃金之湯。紅葉地區的溫泉因進出必須經過瑞穗鄉，隔著紅葉溪與外溫泉相對望，故有內溫泉之稱，水量豐富，四季不竭。早在日治時代即已聲名遠播...,886-3-8875306,花蓮縣978瑞穗鄉(紅葉地區的溫泉屬萬榮鄉行政區，前往需從瑞穗鄉的溫泉路往中央山脈方向，臺9線269.8K西側轉入),花蓮縣,萬榮鄉,,各家溫泉開放時間不定，建議電話詢問,紅色隧道--趙家慶,121.34467,23.49528,,,花東的溫泉享譽盛名，日式建築更添增幾分古色古香的意象。天冷時就來這兒泡泡弱鹼性的「氯化物碳酸鹽泉」瑞穗地區溫泉！,,"['溫泉', '地區', '瑞穗', '紅葉', '安通', '花蓮', '大溫泉區', '略帶', '金黃色', '著生', '男之泉', '山區', '水質', '毫無', '這兩種', '歷史', '環境', '價位', '風格', '湯屋', '民宿', '泡湯', '疲憊', '獨有', '溫度', '圖片', '來源', '家慶攝', '影師', '1919', '人開發', '數一數', '高級', '旅館', '溫泉屬', '鹼性', '鹽泉', '鐵質', '空氣', '一層', '稱為', '湯花', '溫泉花', '金之湯', '進出', '必須', '隔著', '紅葉溪', '相對望', '之稱', '豐富', '日治', '時代即', '已聲', '名遠播', '...', '滴翠', '不竭', '美名', '氯化物', '清幽', '周遭', '碳酸', '冬日', '度假', '清澈', '故有', '悠久', '泉水', '搭配', '旅客', '四季', '水量', '靠近', '氧化', '深深', '味道', '幸福', '一身', '消除', '水面', '享受', '吸引', '遇到', '不少', '日本', '不同']"
100,100,北回歸線標誌公園,,北回歸線標誌公園位在瑞穗舞鶴台地，白色日晷造型的北回歸線標誌，是旅客經過舞鶴台地時必拍照的景點，而公園內周遭設有巨大茶壺造型的裝置藝術、廁所、休憩區，在公園兩側的木製迴廊中，設有許多跟天象、氣候、節氣、地球科學等相關的解說牌示，夏日時這裡還會舉辦夏至235的活動，吸引人潮前來探訪吃美食、看表演。北回歸線為紀錄太陽在北半球所能直射到距離赤道最遠的位置，位在北緯23.5度。每逢夏至的那一天，太陽就直射在北回歸線上，正午時分的「立竿不見影」，更是北回歸線上的獨特天象。在臺灣一共有3處設置北回歸線標誌，分別在嘉義水上鄉、花蓮瑞穗鄉、豐濱鄉。其中位在瑞穗的北回歸線標誌設立於1933年，放在瑞穗火車站的西側，爾後因東線鐵路拓寬才遷於現址。不過，北回歸線通過台9號省道的確實地點，其實是在目前北回歸線標誌以...,886-3-8875306,花蓮縣978瑞穗鄉舞鶴村 (臺9線大約260K東側),花蓮縣,瑞穗鄉,,詳見官網或電話洽詢,北回歸線標誌公園,121.3574,23.46573,,,,,"['北回', '歸線', '標誌', '瑞穗', '舞鶴', '太陽', '夏至', '直射', '天象', '台地', '造型', '牌示', '立竿', '公園位', '時必', '景點', '而公園', '茶壺', '裝置', '藝術', '廁所', '公園', '兩側', '氣候', '節氣', '科學', '相關', '解說', '還會', '舉辦', '235', '活動', '前來', '探訪', '紀錄', '距離', '最遠', '北緯', '23.5', '時分', '不見影', '獨特', '處設', '分別', '嘉義', '花蓮', '豐濱', '設立', '1933', '火車', '西側', '爾後因', '東線', '鐵路拓', '現址', '不過', '通過', '號省', '確實', '地點', '其實', '...', '日晷', '人潮', '休憩', '周遭', '夏日', '正午', '拍照', '美食', '北半球', '旅客', '赤道', '水上', '一共', '表演', '白色', '地球', '吸引', '放在', '位置', '巨大', '一天']"
101,101,安通溫泉區,,寒冷的冬天來花東縱谷旅遊，除了欣賞沿途綿延至天際的油菜花田之外，泡溫泉消除疲勞是一大人間享受。擁有百年歷史的安通溫泉，早年以「安通濯暖」名列花蓮八景之一，接近透明的溫泉水，泉溫達66度，不論是在湯屋、溫泉民宿中泡湯或是在溪畔挖池露天泡湯，都能享受冬日獨有的溫暖。在1904年，一名採樟腦的日本人在安通溪畔發現溫泉，到了1930年，日本人在此興建警察招待所，並設置公共浴場，逐漸發展成為溫泉勝地。隨著時間過去，玉里溫泉公共浴場改名為安通溫泉大旅社，不過溫泉業者至今仍保留日治時期興建的木造平房，建築外觀與舖著榻榻米的日式房間都保存相當良好，一方寫著「玉里溫泉公共浴場」的牌子，掛在入口處的門楣上，更使得整棟建築散發出一股幽靜怡人、古色古香的氣息。來安通溫泉泡湯之外，在這附近還有一條在清朝所開闢的安通越...,886-3-8875306,花蓮縣981玉里鎮樂合里,花蓮縣,玉里鎮,,各家溫泉開放時間不定，建議電話詢問,安通溫泉，早年以「安通濯暖」名列花蓮八景之一,121.34227,23.28032,,,,,"['溫泉', '安通', '浴場', '溪畔', '玉里', '泡湯', '公共', '享受', '來花東', '縱谷', '旅遊', '欣賞', '天際', '疲勞', '人間', '歷史', '花蓮', '泉溫', '66', '不論', '湯屋', '民宿', '中泡湯', '挖池', '獨有', '溫暖', '1904', '採樟腦', '發現', '1930', '此興建', '逐漸', '發展', '勝地', '時間', '過去', '不過', '溫泉業者', '日治時', '期興建', '木造', '建築', '外觀', '榻榻米', '房間', '寫著', '掛在', '門楣', '整棟', '建築散', '發出', '幽靜怡', '氣息', '所開闢', '...', '日式', '油菜花', '古色古香', '旅社', '日本', '八景', '延至', '平房', '冬日', '露天', '名列', '招待所', '泉水', '入口', '牌子', '百年', '警察', '寒冷', '清朝', '改名', '冬天', '透明', '一方', '早年', '消除', '一大', '保留', '保存', '一股', '一名', '至今', '接近', '良好', '使得']"
102,102,羅山遊憩區,,羅山遊憩區以泥火山景觀、手工豆腐、羅山瀑布聞名，來到羅山遊憩區，不僅可以親自體驗用泥火山的滷水來製作豆腐，還能到附近的羅山大魚池眺望羅山瀑布，沿著步道走則可欣賞泥火山的奇觀與特有的濱海植物，感受大自然的奧妙。羅山瀑布為海岸山脈斷層地形所形成的一個瀑布，高約120公尺，分上下兩層，水量豐沛，氣勢驚人。從遠方眺望可看見羅山瀑布猶如一道細細的銀鍊，懸掛在青翠的山壁之間，再向西眺望花東縱谷平原，羅山有機村純樸的田園風光更是一覽無遺。在羅山瀑布附近的泥火山，當地人稱為「鹽坪」，噴出來的泥漿不但含有瓦斯，同時也帶有鹹味。因此羅山村的居民們，很早就知道收集從泥火山噴出來的瓦斯做為燒水煮飯的燃料，也利用泥火山的滷水製作手工豆腐，做出來的豆腐口感綿密、紮實，成為來羅山必品嘗的一道美食。,886-3-8821725,花蓮縣983富里鄉羅山村9鄰東湖39號,花蓮縣,富里鄉,,遊客中心：08:00-17:30,羅山瀑布,121.27584,23.20159,,,,,"['泥火山', '瀑布', '豆腐', '眺望', '憩區', '噴出', '瓦斯', '手工', '一道', '山遊', '景觀', '聞名', '到羅山遊', '親自體驗', '山大魚', '沿著步', '走則', '可欣賞', '奇觀', '濱海', '奧妙', '山脈', '斷層', '高約', '120', '兩層', '豐沛', '氣勢', '驚人', '從遠方', '見羅山', '猶如', '細細', '懸掛', '花東', '谷平原', '機村', '純樸', '田園', '風光', '在羅山', '當地', '人稱', '鹽坪', '泥漿', '同時', '燒水', '綿密', '來羅山', '必品', '青翠', '山有', '可看', '山壁', '山村', '口感', '美食', '大自然', '水量', '收集', '燃料', '海岸', '特有', '感受', '上下', '地形', '含有', '早就', '做出', '不但', '居民', '植物', '知道']"
108,108,鈺展苗圃（落羽松秘境）,,經過網路瘋傳爆紅後的鈺展苗圃落羽松林，絕美程度不輸給雲山水，一到賞落羽松的季節時，整片金黃的落羽松林或是冬季落葉前的橘紅的景致，總是吸引大批人潮前來朝聖，欣賞猶如北國夢幻般的風景。每逢秋冬之際，鈺展苗圃的落羽松從翠綠漸漸轉黃，一大片金黃燦爛樹林倒映在波光粼粼的水中，與水裡優游的錦鯉相互輝映，為這番酷似北國風情的美景，增添幾分活潑的氣息。坐在水畔旁喝杯下午茶，欣賞這番如仙境般的落羽松林，或是餵食錦鯉與拿牧草餵牛，都能讓人度過愜意的午後，臨走前記得把垃圾隨手帶走，讓美景繼續留給其他人欣賞。,886-9-21798666,花蓮縣974壽豐鄉平和部落聯絡道路131號,花蓮縣,壽豐鄉,,08:00-17:00,金黃色的落羽松林,121.52529,23.89104,,清潔費50元,欣賞落羽松的最佳時刻為12月至明年1月,,"['落羽', '欣賞', '松林', '這番', '苗圃', '美景', '般的', '網路', '瘋傳', '爆紅後的鈺展', '絕美', '不輸給', '賞落', '羽松', '季節', '金黃', '落葉前', '橘紅', '總是', '前來', '朝聖', '猶如北', '國夢幻', '風景', '之際', '鈺展', '落羽松', '從翠綠漸', '漸轉', '金黃燦爛', '樹林', '波光粼粼', '水裡', '優游', '輝映', '北國', '風情', '幾分', '活潑', '氣息', '水畔', '食錦', '人度過', '愜意', '臨走', '記得', '隨手', '繼續', '留給', '下午茶', '整片', '倒映在', '人潮', '喝杯', '仙境', '景致', '秋冬', '酷似', '牧草', '垃圾', '其他人', '增添', '山水', '一到', '大片', '大批', '水中', '冬季', '相互', '吸引', '坐在', '程度']"
109,109,雲山水植物農場,,自從黑松汽水來這拍攝廣告後一炮而紅的雲山水，有著絕美宛如歐洲明信片上的風景，翠綠的落羽松林倒映在水中，隨著陽光灑落而呈現夢幻的光影變化，加上附近充滿童趣、像城堡般的民宿，讓人彷彿置身於國外，在一旁遼闊廣大的青青草地，更是能讓小朋友盡情奔跑，享受快樂的親子時光。到了春分時刻，栽種於夢幻湖畔的鳶尾花紛紛綻放，柔和的紫色花朵隨風在水岸旁蕩漾；秋分時節，走在小水壩上的石磚步道，聽著潺潺流水聲，欣賞眼前由綠轉黃而變得繽紛多彩的落羽松林，讓人情不自禁地沉浸在這水中森林的風景中。若是想要隨時隨地欣賞雲山水的美景，不妨來此居住一晚，看著清晨雲煙繚繞的山巒與湖畔相互輝映，或是正午艷陽高照為落羽松林鍍上一層層金光，享受雲山水獨有的歐洲風情。貼心小提醒：凡進入雲山水園區皆會收取入園費喔！,886-9-68799780,花蓮縣974壽豐鄉豐坪路二段2巷201弄88號,花蓮縣,壽豐鄉,,08:00 - 17:00,來到雲山水一定要走的石磚步道,121.5087,23.8332,,入園清潔費：1、全票120元(附50元抵用卷)2、優惠票90元(附50元抵用卷)(1)年滿65歲以上長者(2)學生(3)15人以上團體(不含愛心票)，並須前3日預約3、愛心票50元...,1.欣賞落羽松最佳時刻為12月至明年1月2.欣賞鳶尾花最佳時刻為約3月至4月,,"['落羽', '山水', '松林', '歐洲', '欣賞', '湖畔', '水中', '享受', '童趣', '潺潺流水', '自從', '黑松汽水', '這拍', '攝廣告', '而紅', '絕美', '風景', '翠綠', '隨著陽', '光灑', '現夢幻', '變化', '充滿', '民宿', '國外', '遼闊', '廣大', '盡情', '快樂', '親子', '時光', '時刻', '栽種', '夢幻', '尾花', '紛紛', '隨風', '時節', '小水壩', '石磚步', '聽著', '由綠轉', '變得繽紛', '風景中', '隨時', '隨地', '來此', '看著', '雲煙繚繞', '山巒', '輝映', '艷陽', '鍍上', '一層', '獨有', '風情', '貼心', '進入', '園區', '入園費', '水岸', '多彩的', '明信片', '倒映在', '高照', '秋分', '春分', '一炮', '青青', '小朋友', '置身', '光影', '正午', '美景', '宛如', '金光', '情不自禁', '沉浸', '紫色', '柔和', '花朵', '草地', '清晨', '奔跑', '城堡', '收取', '不妨', '想要', '般的', '居住', '森林', '相互', '提醒']"
110,110,興泉圳風鈴木,,每當黃花風鈴木的花季來臨時，各地紛紛出現追花狂熱，而位在光復、瑞穗交界處的興泉圳正是賞黃花風鈴木的熱門景點。長達近300公尺的黃花風鈴木花道，在3月盛開金黃色的花朵，與遠方的青山相互襯托，從潺潺流水的水圳中，看見金黃燦爛的倒影，更是美的像一幅油畫，成為近期IG、FB打卡的新興景點。來自富源蝴蝶谷的興泉圳，興建於清朝光緒年間，有著悠久的百年歷史，後續由台糖接手並在水圳兩旁種植風鈴木，每逢3月花開時節，這裡形成漫漫黃金河道，盛開的黃色花朵，倒映在一旁的水田中，吸引不少遊客來此賞花，倘佯在這美好的景色中。重要提醒：因該景點鄰近學校，交通工具勿隨意停放或停放鄰近學校(如富源國中)，並請一起維持交通的順暢喔！由於水圳周遭都是農田和叢林，賞花時須走在田埂上，一不小心可能會滑倒，建議穿防滑鞋或...,886-3-8875306,花蓮縣976光復鄉,花蓮縣,光復鄉,,全天,長達近300公尺的黃花風鈴木花道,121.3866,23.59305,,免費,欣賞黃花風鈴木最佳時刻為3月中上旬,,"['風鈴木', '興泉圳', '景點', '盛開', '水圳', '賞花', '鄰近', '學校', '富源', '停放', '花朵', '木花', '蝴蝶谷', '倘佯', '潺潺流水', '打卡', '每當黃花', '花季', '臨時', '紛紛', '出現', '追花', '狂熱', '而位', '賞黃花', '熱門', '300', '花風鈴', '金黃色', '遠方', '襯托', '水圳中', '金黃燦爛', '美的', '油畫', 'IG', 'FB', '興景點', '興建', '光緒', '年間', '歷史', '台糖', '並在', '兩旁種', '植風鈴木', '花開', '時節', '遊客', '因該', '隨意', '國中', '並請', '維持', '順暢', '農田', '叢林', '時須', '建議', '...', '瑞穗', '倒映在', '防滑', '田埂', '滑倒', '倒影', '一不小心', '周遭', '漫漫', '青山', '交通工具', '水田', '接手', '悠久', '交界', '百年', '景色', '一幅', '美好', '河道', '清朝', '相互', '提醒', '吸引', '交通', '各地', '正是', '近期', '不少', '一起', '重要', '可能']"
111,111,拉索埃生態園區,,在花蓮光復糖廠的後方，還有一處鮮為人知的小秘境，那就是拉索埃湧泉生態園區，園區中共有6處湧泉，每一處生態環境維持原始自然，湛藍清澈的泉水，像是被上帝調過的顏色，更孕育出臺灣瀕臨絕種的原生水生植物-小花石龍尾，如此絕美的景點，背後有著感人的阿美族神話。相傳神鳥兜羅一直守護縱谷的居民，但牠卻被獵人所傷，幸而有拉索埃村民照料後而痊癒，然而好景不常，拉索埃村接二連三爆發乾旱與瘟疫，於是神鳥兜羅落下六滴眼淚幻化成湧泉，捨身解救村民，讓村民能夠世代豐饒、快樂的過生活。交織原始生態與阿美族神話故事的拉索埃湧泉，被選為2016年最美的秘境，隨著陽光變化折射出不同藍色的1號湧泉，有著藍色眼淚的美名，宛如臺灣版的九寨溝。而清澈見底的6號湧泉，讓人能夠坐上手划船，邊清理藻類邊近距離欣賞小花石龍尾，來一場奇幻漂流之...,886-3-8875306,花蓮縣976光復鄉大進街15巷(光復糖廠的後方),花蓮縣,光復鄉,,全天,1號湧泉，有著藍色眼淚的美名,121.42261,23.64948,,免費,,,"['拉索', '生態', '阿美族', '秘境', '埃湧泉', '園區', '石龍尾', '神話', '眼淚', '藍色', '號湧泉', '村民', '小花', '清澈', '乾旱', '原始', '好景不常', '花蓮光', '鮮為', '人知', '處湧泉', '每一處', '環境', '維持', '湛藍', '調過', '顏色', '灣瀕臨', '絕種', '美的', '景點', '背後有', '相傳神', '守護', '縱谷', '獵人', '所傷', '埃村', '接二連', '爆發', '神鳥', '六滴', '湧泉', '豐饒', '快樂的過', '交織', '選為', '2016', '隨著陽光', '變化', '灣版', '見底', '藻類邊', '離欣賞', '一場', '...', '幻化成', '孕育出', '九寨', '奇幻', '美名', '近距', '水生植物', '划船', '漂流', '最美', '感人', '折射出', '宛如', '原生', '瘟疫', '解救', '幸而', '泉水', '照料', '世代', '清理', '落下', '上帝', '中共', '像是', '故事', '居民', '然而', '自然', '如此', '生活', '一直', '不同']"
112,112,大農大富平地森林園區,,大農大富平地森林園區為臺灣首座平地森林園區，擁有豐富的自然生態，春天賞花、夏季賞螢與賞鳥、秋冬賞楓，一年四季皆有不同風采。園區內設有北環、南環自行車道，讓人能夠邊騎單車邊吸收芬多精，幸運時還可以看見環頸雉出來覓食，聽著蟲鳴鳥叫，愜意騎車享受森林浴。被中央山脈與海岸山脈包圍的大農大富平地森林園區，視野十分遼闊，在春天時可以欣賞服務中心前繽紛多彩的花海，而廣闊的草原上放著極具巧思的裝置藝術，總是抓住旅客的目光，成為熱門拍照點。一到3、4月時，夜晚的草叢中開始有點點螢光紛飛，螢火蟲的數量多到宛若一條會移動的銀河，讓人捨不得移開目光，專心聆聽導覽員的講解，來一趟豐富的生態之旅。每到秋冬之際，南環自行車道兩旁的杜英、楓香、青楓等，逐漸由綠轉黃再變紅，不禁吸引許多人前來賞楓拍照。在南還自行車道上騎單車，...,886-3-8700870 #9,花蓮縣976光復鄉農場路31號,花蓮縣,光復鄉,,服務中心08:00-17:00，週一休息（寒暑假及國定假日除外）,大農大富平地森林遊樂區也有龍貓隧道,121.41773,23.61485,,,賞螢為3月至4月賞楓為12月至明年1月,,"['園區', '車道', '平地', '大農', '豐富', '生態', '賞楓', '南環', '山脈', '大富', '自行', '森林', '拍照', '秋冬', '春天', '目光', '杜英', '賞花', '賞螢', '賞鳥', '風采', '內設', '北環', '邊騎', '單車邊', '芬多精', '幸運', '時還', '環頸雉', '出來', '著蟲鳴', '愜意', '騎車', '森林浴', '包圍', '視野', '遼闊', '欣賞', '服務', '前繽紛', '而廣闊', '上放著', '極具', '裝置', '藝術', '總是', '熱門', '草叢', '開始', '點點', '螢光', '紛飛', '螢火蟲', '數量', '一條會', '移動', '銀河', '移開', '專心', '導覽員', '講解', '之際', '兩旁', '楓香', '青楓', '逐漸', '綠轉', '變紅', '許多人', '前來', '南還', '單車', '...', '花海', '巧思', '多彩的', '宛若', '首座', '一年四季', '旅客', '一到', '一趟', '夜晚', '海岸', '夏季', '草原', '抓住', '不禁', '享受', '吸收', '吸引', '不得', '中央', '自然', '中心', '不同']"
113,113,富興森林小火車,,富興社區為全臺最大的土鳳梨產地，每到7月至9月的鳳梨產季時，富興的鳳梨田中長滿一顆顆飽滿多汁的鳳梨，搭上輕軌小火車經過一望無際的鳳梨田，穿越樹林沿著幸福軌道抵達終點拍照留念，或是坐著農耕車牽引的列車，聽當地居民說著富興社區的故事，參觀爸爸去哪兒的1號房等拍攝地，最後再大口品嘗酸酸甜甜的土鳳梨、金鑽鳳梨，享受產地鮮採的甜美滋味。全長1314公尺的幸福軌道，是情侶、全家出遊拍照的地方，坐著富興森林小火車，邊聽司機介紹人造林生態、鳳梨的品種，到了520公尺便會停下來，讓人休息、下來走走，看看美麗的夢幻湖，留下美好的回憶。臨走前，不妨帶上新鮮好吃的鳳梨或農特產品回家吧！,886-9-21287837,花蓮縣978瑞穗鄉,花蓮縣,瑞穗鄉,,09:00-17:00,搭上富興森林小火車欣賞一望無際的田園景觀,121.3995,23.58095,,園區免費1.搭乘小火車一次：$100元2.搭小火車+DIY體驗：$250元※實際價格依現場為主,,,"['鳳梨', '富興', '社區', '軌道', '坐著', '小火', '拍照', '幸福', '酸酸甜甜', '土鳳梨產地', '鳳梨產', '季時', '一顆', '顆飽滿', '輕軌', '車經過', '無際', '鳳梨田', '樹林', '沿著', '抵達', '終點', '農耕車', '牽引', '列車', '當地', '著富興', '參觀', '哪兒', '號房', '攝地', '最後再', '大口品', '土鳳梨', '金鑽鳳', '產地', '鮮採', '1314', '情侶', '出遊', '邊聽司', '機介紹', '生態', '品種', '520', '便會', '下來', '美麗', '幻湖', '回憶', '臨走', '帶上', '新鮮', '農特產品', '留念', '回家吧', '田中', '多汁', '甜美', '搭上', '造林', '一望', '走走', '穿越', '好吃', '滋味', '停下', '全家', '美好', '不妨', '爸爸', '享受', '森林', '休息', '故事', '居民', '留下', '看看', '最大', '地方']"
114,114,東里車站與東里鐵馬驛站,,每天平均約20人進出的東里車站，看似不起眼，卻被譽為「山線最美的車站」，一走進月台便被眼前的美景所吸引，整片無邊無際的綠色稻田映在眼前，小小的東里車站被圍繞在田野間，壯觀令人驚呼不已的田園景緻，深深吸引不少遊客前來探訪。東里鐵馬驛站前身為舊東里車站，也是玉富自行車道北上的起點，兩旁無垠的阡陌景致，是許多自行車友必拜訪站點之一，而東里鐵馬驛站中仍保留早期月台的風貌，舊時的復古情懷，加上花東縱谷的招牌景色，讓人能夠邊騎自行車邊欣賞田園美景。當太陽升起，陽光灑落在稻田上，翠綠的秧苗隨風搖曳，一波波綠色稻浪映入眼簾，再隨著季節變化，稻田由綠轉黃，空氣間瀰漫著稻香，騎著單車經過兩旁隨風搖擺的金色稻浪，細細感受東里車站與東里鐵馬驛站的靜謐與稻田的絕美風景。,886-3-8882020,花蓮縣983富里鄉大莊路211號,花蓮縣,富里鄉,,全天,東里鐵馬驛站為玉富自行車道北上的起點，讓人能邊騎車邊欣賞美景,121.30413,23.2689,,免費,東里鐵馬驛站電話：03-8861090春夏欣賞綠色的稻田，春耕有花海，金色稻浪為5月下旬至6月；10月下旬至12月,,"['東里車', '東里', '鐵馬', '稻田', '稻浪', '綠色', '田園', '兩旁', '自行', '月台', '美景', '吸引', '20', '進出', '山線', '車站', '一走進', '無邊', '無際', '圍繞', '壯觀', '驚呼', '遊客', '前來', '探訪', '玉富', '車道', '起點', '無垠', '車友', '必拜訪', '站點', '風貌', '舊時', '古情', '花東', '縱谷', '邊騎', '車邊', '欣賞', '當太陽', '陽光灑', '翠綠', '隨風搖曳', '眼簾', '季節', '變化', '由綠轉', '空氣間', '漫著', '稻香', '騎著', '單車', '隨風搖', '細細', '靜謐', '絕美風景', '波波', '秧苗', '整片', '阡陌', '映入', '不起眼', '最美', '景致', '招牌', '金色', '田野', '看似', '升起', '景色', '北上', '不已', '前身', '深深', '小小的', '感受', '保留', '早期', '每天', '平均', '不少']"
115,115,玉富自行車道,,長約10公里的玉富自行車道，為「亞洲唯一‧世界唯二」橫跨兩個板塊的自行車道，起點從玉里到富里的東里鐵馬驛站，沿途視野十分遼闊，兩旁伴隨著無垠的阡陌景觀，騎在舊鐵道改建的車道上，經過橫跨歐亞大陸板塊與菲律賓海板塊的秀姑巒大橋，享受腳跨兩個板塊的驚奇感！玉富自行車道前身為從玉里到富里的舊東線鐵道，因受到歐亞大陸板塊與菲律賓海板塊擠壓的緣故，每年約長高2-3公分，因此2007年臺鐵改線之後，這條舊鐵道改建為玉富自行車道，成為獨一無二會長高的自行車道。坡度平緩、景色宜人的玉富自行車道，不僅適合親子出遊騎鐵馬，也是在地人運動的好地方，讓人欣賞隨著四季變化而有所不同田園的景觀。玉富自行車道路線圖,886-3-8875306,花蓮縣981玉里鎮,花蓮縣,玉里鎮,,全天,玉富自行車道也是在地人運動的好地方,121.31115,23.32871,,,騎程時間：約1小時(視個人騎乘速度而定)由舊鐵道改建而成，坡度平緩，但路幅較窄，行進時要小心周邊的高低差喔！,,"['車道', '自行', '玉富', '板塊', '橫跨', '兩個', '從玉里', '富里', '景觀', '鐵道', '歐亞大陸', '菲律', '賓海板', '改建', '亞洲', '唯二', '起點', '東里', '鐵馬', '視野', '遼闊', '兩旁伴', '無垠', '姑巒', '大橋', '驚奇感', '東線', '約長', '2007', '改線', '這條', '舊鐵道', '為玉富', '獨一無二會長', '平緩', '適合', '親子', '出遊', '騎鐵馬', '地人', '運動', '人欣賞', '變化', '田園', '線圖', '景色宜人', '阡陌', '公分', '坡度', '有所不同', '四季', '前身', '享受', '公里', '道路', '受到', '地方', '世界']"
118,118,吉安慶修院,,玩樂攻略-為花蓮縣定三級古蹟-目前臺灣保存最完整的日式寺院-欣賞請自日本四國的八十八尊石佛-必看以日式傳統建築工法「寶形造」建設的佛堂 大眾運輸點此連結&gt;&gt;&gt;台灣好行-縱谷花蓮線資訊(時刻表/票價表)無障礙公車預約&gt;&gt;&gt;&gt;台灣好行無障礙預約資訊清淨口舌與身心的手水舍、古意質樸的佛堂、莊嚴肅穆的八十八尊石佛，以及充滿禪意的枯山水，讓人彷彿走入日本佛寺般，不禁沉浸在寧靜安詳的氛圍中，這裡是吉安慶修院，為日治時期川端滿二為了撫慰移民而建設的佈道所，是一座花蓮縣定三級古蹟，也是現今台灣保存最完整的日式寺院。心靈的寄託與八十八尊石佛吉安在日治時期被稱作吉野，是花蓮相當有名的移民村，在大正六年（1917年），川端滿二募建了這座「真言宗高野山派吉野布教所」，希望以...,886-3-8535479,花蓮縣973吉安鄉吉安村中興路345之1號,花蓮縣,吉安鄉,,週二至週日 08:30~17:00 (週一休館),吉安慶修院入口處,121.56471,23.97369,,1.全票30元2.半票、團體票(20人以上)15元3.設籍花蓮鄉親免費入園、持身心障礙手冊者加一位陪同免費入園,,,"['gt', '十八尊', '花蓮', '台灣', '日式', '石佛', '縣定', '三級', '建設', '好行', '無障礙', '預約', '吉野', '佛堂', '吉安', '寺院', '移民', '完整', '保存', '高野山', '必看', '川端', '玩樂', '欣賞', '四國', '傳統', '建築', '工法', '寶形造', '大眾', '運輸點', '此連結', '縱谷', '花蓮線', '時刻表', '票價表', '公車', '清淨', '手水舍', '質樸', '莊嚴', '肅穆', '充滿', '禪意', '寧靜安詳', '氛圍', '日治時', '期川端', '滿二為', '撫慰', '現今', '心靈', '日治', '時期', '大正', '1917', '滿二募', '這座', '布教', '...', '古意', '修院', '攻略', '日本', '口舌', '真言', '佛寺', '走入', '沉浸', '身心', '山水', '六年', '有名', '不禁', '一座', '希望']"
119,119,吉利潭,,四周青山環繞，一汪清潭宛若山間明月，帶點中國風的拱橋倒映在水面上，走在環潭步道上欣賞眼前美景、認識水中生物，為旅人帶走都市的喧囂，這就是隱藏在光復馬錫山下的山中秘境──吉利潭，也是花蓮近期新興景點，擁有戲水道、生態浮島等設施，為炎炎夏日親子戲水、踏青與認識自然生態的好去處。吉利潭原本是日治時期遺留下來的儲木池，上游源自一處有三層的瀑布，大小潭蓄滿了清徹的山泉水，是雙色澤蟹、拉氏清溪蟹、菊池氏細鯽等原生動物的棲地，也是光復鄉阿美族的戲水秘境與祈雨聖地。隨著伐木業沒落而荒蕪的吉利潭，經過整治、美化後，成為認識自然生態的親水公園，站在橋上聽著潺潺流水聲，或是在涼亭遠眺馬錫山、與親朋好友話家常，清幽的環境是來光復必訪的景點之一。,886-3-8875306,花蓮縣976光復鄉大馬村,花蓮縣,光復鄉,,詳見官網或電話洽詢,空拍吉利潭,121.39704,23.67975,,,,,"['認識', '生態', '吉利', '秘境', '戲水', '清潭', '拉氏', '菊池', '阿美族', '山泉水', '潺潺流水', '環繞', '山間', '帶點', '中國風', '拱橋', '環潭步', '欣賞', '喧囂', '隱藏', '花蓮', '新興景點', '擁有戲', '浮島', '設施', '親子', '日治', '時期', '儲木池', '三層', '蓄滿', '清徹', '雙色澤蟹', '氏細', '動物', '棲地', '聖地', '業沒落', '荒蕪', '親水公園', '橋上', '涼亭', '眺馬錫山', '親朋', '環境', '必訪', '景點', '炎炎夏日', '踏青', '倒映在', '一汪', '祈雨', '旅人', '宛若', '自然', '伐木', '清溪', '清幽', '家常', '美景', '美化', '青山', '原生', '好友', '源自', '明月', '都市', '水道', '山下', '瀑布', '整治', '山中', '原本', '水中', '水面', '四周', '上游', '生物', '留下', '大小', '近期']"
121,121,吉蒸牧場,,來到鮮奶產地的瑞穗，當然不容錯過到牧場品嘗鮮榨牛奶的滋味！在瑞穗共有兩間牧場，一處是廣為人知的瑞穗牧場，另一處便是位在秀姑巒溪泛舟遊客中心旁的吉蒸牧場，園區內擁有販售部、餐廳、可愛動物園區，少了一分喧囂氣息的牧場，讓旅人可以多享受一份清淨，靜靜遠眺秀姑巒溪，或是在溪畔旁漫步。與秀姑巒溪相伴的吉蒸牧場，將自產香醇濃郁的牛奶，製作成各種乳製品，在夏天來杯牛奶冰淇淋、鮮奶饅頭；在冬天大啖香濃的牛奶鍋，最後別忘了在園區內散步，餵食山羊、迷你馬等動物，體驗與自然相鄰的清幽。,886-3-8875588,花蓮縣978瑞穗鄉中山路三段230號,花蓮縣,瑞穗鄉,,08:00~17:30,吉蒸牧場,121.39876,23.4835,,,,,"['牧場', '姑巒', '園區', '瑞穗', '牛奶', '鮮奶', '蒸牧場', '溪畔', '產地', '當然', '錯過', '品嘗鮮', '兩間', '廣為', '人知', '位在秀', '遊客', '販售部', '餐廳', '可愛動物', '喧囂', '氣息', '清淨', '靜靜遠', '眺秀', '與秀', '將自產', '濃郁', '各種', '來杯', '饅頭', '香濃', '最後別', '餵食', '動物', '體驗', '相鄰', '香醇', '冰淇淋', '旅人', '泛舟', '迷你', '清幽', '漫步', '作成', '相伴', '散步', '山羊', '一分', '不容', '滋味', '冬天', '夏天', '享受', '便是', '一份', '共有', '自然', '中心']"
122,122,鯉魚潭遊客中心,,大眾運輸點此連結&gt;&gt;&gt;台灣好行-縱谷花蓮線資訊(時刻表/票價表)無障礙公車預約&gt;&gt;&gt;&gt;台灣好行無障礙預約資訊坐擁湖光山色美景的鯉魚潭遊客中心，位在鯉魚潭的潭北，提供遊客單車出租、伴手禮販賣部、休憩與諮詢解說等服務，走進遊客中心的其中一間館舍，可以看見極具原住民特色的木雕迎接旅人，內部設有展示館，用模型、豐富的照片與圖文解說，介紹鯉魚潭的形成與自然景觀，以及在地原住民文化。邁開步伐往內走，走道兩旁是花東縱谷產業特色說明，六十石山金針花海、縱谷一望無際的田園風光、初鹿牧場香純的鮮奶&hellip;&hellip;等詳盡導覽，是旅人來鯉魚潭遊玩、喝杯下午茶之際，還能了解花東縱谷特色產業，並規劃重點旅遊的好去處。貼心提醒：遊客中心有2台行動輪椅及1台電動...,886-3-8641691,花蓮縣974壽豐鄉環潭北路100號,花蓮縣,壽豐鄉,,08:30~17:30,鯉魚潭遊客中心,121.50803,23.93493,,,設有無障礙通道,,"['gt', '縱谷', '魚潭', '遊客', '原住民', '台灣', '好行', '無障礙', '預約', '花東', 'hellip', '旅人', '特色', '中心', '文解', '大眾', '運輸點', '此連結', '花蓮線', '時刻表', '票價表', '公車', '單車', '伴手', '禮販', '賣部', '詢解', '服務', '進遊客', '一間', '館舍', '極具', '內部', '豐富', '介紹', '景觀', '邁開', '往內', '兩旁', '縱谷產業', '說明', '金針', '無際', '田園', '風光', '初鹿牧場', '香純', '鮮奶', '盡導覽', '魚潭遊', '之際', '產業', '並規劃', '重點', '旅遊', '貼心', '台行', '動輪', '椅及', '台電動', '...', '花海', '走道', '下午茶', '休憩', '喝杯', '湖光山色', '石山', '美景', '木雕', '六十', '一望', '出租', '展示', '照片', '步伐', '迎接', '模型', '提醒', '了解', '文化', '自然']"
123,123,鶴岡遊客中心,,位在瑞穗鄉、緊靠海岸山脈的鶴岡遊客中心，是花東縱谷國家風景管理處的處本部，除了提供各式各樣的旅遊摺頁、親切的遊客諮詢服務之外，鶴岡遊客中心前方有著遼闊美麗的草皮，十分適合帶著家中毛小孩、寶貝進行休閒活動，一旁也有帶點中國風的涼亭供旅人休憩。瑞穗鄉是柚子的產地，以鶴岡地區的文旦柚出名，每逢3月中下旬，正逢柚子樹開花的季節，這時來到鶴岡遊客中心，不僅可見一排排柚子樹開滿朵朵白花，還能參加舉辦瑞穗柚花健走路跑活動，享受在柚花清香中揮汗的快感。貼心提醒：遊客中心有1台行動輪椅可出借使用喔！鶴岡遊客中心內相關服務設施1、無障礙坡道及服務鈴2、行動輪椅3、無障礙親子公廁4、無障礙汽機車停車格5、無障礙盲人點字飲水機6、手杖7、哺乳室8、嬰兒推車9、手機充電11、汽、機車空壓機及汽車電瓶充電11、視聽...,886-3-8875306,花蓮縣978瑞穗鄉鶴岡村17鄰興鶴路二段168號,花蓮縣,瑞穗鄉,,08:30~17:30,花東縱谷國家風景管理處暨鶴岡遊客中心,121.39087,23.52407,,,,,"['鶴岡遊客', '無障礙', '瑞穗', '柚子', '中心', '遊客', '活動', '輪椅', '充電', '11', '文旦', '緊靠', '山脈', '花東', '縱谷', '國家', '風景', '各樣', '旅遊', '親切', '詢服務', '遼闊', '美麗', '適合帶', '寶貝', '進行', '休閒', '帶點', '中國風', '涼亭', '產地', '以鶴岡', '地區', '樹開花', '季節', '這時', '樹開', '參加', '舉辦', '柚花健', '柚花', '中揮', '貼心', '台行動', '內相關', '服務', '設施', '服務鈴', '行動', '親子', '公廁', '汽機車', '停車格', '點字', '飲水機', '哺乳室', '嬰兒', '推車', '手機', '機車', '空壓', '機及', '汽車', '電瓶', '視聽', '...', '出借', '草皮', '朵朵', '旅人', '休憩', '坡道', '正逢', '手杖', '一排排', '白花', '快感', '中下旬', '各式', '清香', '盲人', '出名', '本部', '走路', '小孩', '前方', '海岸', '家中', '享受', '提醒', '管理', '使用']"
124,124,羅山遊客中心,,行走於台九線來到米之鄉富里，在富里鄉農會展售中心附近的羅山遊客中心，是進入羅山遊憩區的第一站，佔地廣大又整潔的遊客中心，提供了旅遊諮詢、哺集乳室、照護床、穆斯林祈禱室利用、手機平板充電與地質地景影片欣賞&hellip;等服務。遊客中心在戶外擺放幾處野餐桌椅，讓人可以伴著青山白雲、田園景緻，享用自行攜帶的美食，度過一個悠閒美好的時光，再繼續前往拜訪山中有機村，一探泥火山與泥火山豆腐的奧秘。貼心提醒：遊客中心有行動輪椅、手搖車及照護床各1台可出借使用喔！羅山遊客中心內相關服務設施有1、照護床2、無障礙坡道及服務鈴2、無障礙電梯3、行動輪椅4、無障礙親子公廁5、無障礙停車場6、哺乳室7、祈禱室8、淋浴間9、輪胎充氣10、汽車緊急電源11、行李寄放12、醫藥箱13、老花眼鏡、雨傘借用14、視聽室...,886-3-8821725,花蓮縣983富里鄉9鄰東湖39號,花蓮縣,富里鄉,,08:30~17:30,羅山遊客中心,121.2759,23.20164,,,,,"['無障礙', '遊客', '照護床', '中心', '泥火山', '富里', '山遊客', '祈禱', '服務', '輪椅', '老花眼', '寄放', '台九線', '農會', '展售', '進入羅山遊', '憩區', '佔地', '廣大', '整潔', '旅遊諮詢', '哺集', '乳室', '手機', '充電', '地質', '地景', '欣賞', 'hellip', '戶外', '擺放', '幾處', '伴著', '田園', '攜帶', '度過', '悠閒', '時光', '繼續', '拜訪', '機村', '奧秘', '貼心', '有行動', '手搖車', '內相關', '設施', '服務鈴', '電梯', '行動', '親子', '公廁', '停車場', '哺乳室', '輪胎', '充氣', '汽車', '緊急', '電源', '11', '12', '醫藥箱', '13', '雨傘', '14', '視聽室', '...', '出借', '野餐', '第一站', '淋浴', '坡道', '一探', '平板', '桌椅', '美食', '青山', '享用', '借用', '豆腐', '行走', '行李', '美好', '山中', '穆斯林', '影片', '自行', '提醒', '使用']"
127,127,東華大學,,東華大學西依巍峨的中央山脈，東臨連綿不絕的海岸山脈，諾大的校區擁有青青草地、歐式風格的建築與三座絕美的湖畔──小華湖、華湖及東湖，其中以東湖最富盛名，波光瀲灩的湖景搭配歐風建築和遠方蒼綠的山巒，宛若明信片上的風景，成為旅人或新人拍婚紗照的經典拍攝地，而遼闊的草地更是毛小孩追逐嬉戲的天堂。帶點花東獨特的悠閒步調，那湖光山色的風景，讓東華大學成為花蓮最美的校園，走在綠蔭遮蔽的步道中，不時可見莘莘學子結伴而行，搭配六月鳳凰花開的季節景致，構成一幅交織人文自然美景的畫作。當夜晚降臨時，屬於東華大學的隱藏版美景才正要上演，躺在草地上欣賞滿天浩瀚無垠的星空，可是學生專屬的獨特體驗呢！,886-3-8903000,花蓮縣974壽豐鄉大學路二段一號,花蓮縣,壽豐鄉,,詳見官網或電話洽詢,充滿歐風的東華大學是拍婚紗照的經典地方,121.5418,23.89754,,,1.有開車的遊客，請記得在校門口換證才能進入2.無東華大學車輛識別證的機車，需要停在校門口的停車場,,"['東華大學', '草地', '山脈', '建築', '風景', '美景', '搭配', '步道', '西依', '東臨', '連綿', '不絕', '諾大', '校區', '歐式', '風格', '美的', '小華湖', '華湖', '東湖', '以東湖', '瀲灩', '湖景', '歐風', '遠方', '蒼綠', '山巒', '拍婚', '紗照', '經典', '攝地', '遼闊', '嬉戲', '帶點', '花東', '獨特', '悠閒步', '花蓮', '校園', '綠蔭', '不時', '莘莘學子', '結伴', '鳳凰花', '季節', '構成', '交織', '畫作', '降臨', '隱藏版', '上欣賞', '滿天', '無垠', '學生', '專屬', '獨特體驗', '明信片', '波光', '旅人', '宛若', '湖光山色', '浩瀚', '青青', '最富', '三座', '星空', '最美', '湖畔', '遮蔽', '景致', '巍峨', '盛名', '新人', '天堂', '人文', '追逐', '而行', '一幅', '六月', '小孩', '上演', '夜晚', '海岸', '正要', '中央', '自然', '可是']"
128,128,紅葉菸樓,,提到菸樓，許多人的第一印象便是鳳林，但瑞穗曾是種植菸葉的生產地，於菸樓製好的菸葉都會送往鳳林做販售。在行經紅葉溫泉的路途中，在便利商店的對面小巷子，深藏著一棟又一棟的菸樓，層層青苔覆蓋在黑瓦上，滄桑斑駁的紅磚牆與木板，彩繪著令人省思的新詩與畫作，漫步小巷裡，讓旅人可以遙想當年瑞穗製菸的風華歷史。在日治時期，菸葉又稱作綠金，是非常具經濟價值的農作物，早期只有日本人有權能夠製菸，並聘用當地人種植與燻製菸葉，在二次世界大戰結束後，當年用來燻製與儲存菸葉的菸樓，由屋主贈與佃農，或是由仕紳擔任的保正（類似現今的里長）進行分配。如今瑞穗僅存14棟較為完整的菸樓，部分的菸樓因久年失修，用於排煙的屋頂、建築主體呈現頹傾的模樣，前往欣賞的旅人務必要小心。,886-3-8875306,花蓮縣978瑞穗鄉溫泉路二段210巷,花蓮縣,瑞穗鄉,,詳見官網或電話洽詢,紅葉菸樓,121.35849,23.49432,,,紅葉菸樓靠近紅葉國小及全家便利商店,,"['瑞穗', '鳳林', '旅人', '便利商店', '許多人', '種植', '生產地', '販售', '行經', '紅葉', '溫泉', '對面', '著一棟', '一棟', '層層', '覆蓋', '滄桑斑', '紅磚', '彩繪著', '省思', '新詩', '畫作', '遙想', '日治', '時期', '綠金', '具經濟', '價值', '人有', '權能', '當地', '人種', '大戰', '結束', '屋主', '佃農', '由仕紳', '擔任', '類似', '現今', '進行', '僅存', '14', '因久', '排煙', '屋頂', '建築', '主體', '呈現', '頹傾', '模樣', '欣賞', '第一印象', '小巷子', '黑瓦', '失修', '青苔', '保正', '聘用', '漫步', '小巷', '深藏', '路途', '送往', '木板', '作物', '二次', '小心', '提到', '完整', '分配', '便是', '早期', '必要', '如今', '日本', '非常', '部分', '世界', '只有']"
129,129,馬太鞍休閒農業區,,花蓮光復鄉的馬太鞍濕地，是一處湧泉不絕的天然沼澤濕地，並孕育出豐富的鳥類、蛙類、底棲性魚類等多樣化自然生態。還能體驗獨特的巴拉告生態捕魚法，讓人不僅可以上一堂生態課，還能嘗到現撈的魚蝦、鹽烤吳郭魚，以及特有的石頭火鍋，來一場原民美食饗宴。馬太鞍是阿美族人的傳統生活區域，昔日這裡長滿了樹豆，因此被稱為馬太鞍（vataan，阿美族語樹豆之意）。而居住在此的阿美族人，發展出「Palakaw」巴拉告生態捕魚法，利用中空的竹子、樹枝等，製作出三層的結構物放入水塘中，讓魚蝦喜歡、小魚能自由出入的棲息地，經過一段時間後，將九芎枝幹提出水面，即可將攀附在樹枝間的小蝦抖入三角魚網中；而藏放在底層的大竹筒能輕鬆捕獲鱔魚、土虱或鰻魚等底棲性魚類。他們堅守不竭澤而漁的原則，讓人感受到阿美族人的生活智慧。每到5月至8...,886-3-8701861,花蓮縣976光復鄉大全村大全街 (大約於臺9線250K西側轉入),花蓮縣,光復鄉,,依粉絲團開放時間說明,馬太鞍濕地是一處湧泉不絕的天然沼澤濕地,121.41131,23.65915,,園區免費參觀,1.想要品嘗石頭火鍋需事先預訂2.５至８月可賞荷花,,"['阿美族', '底棲性', '魚類', '生態', '告生', '態捕', '魚法', '魚蝦', '巴拉', '花蓮光', '太鞍濕', '湧泉', '不絕', '沼澤濕', '豐富', '鳥類', '蛙類', '多樣化', '體驗', '獨特', '嘗到', '現撈', '吳郭魚', '石頭', '火鍋', '一場', '原民', '太鞍是', '傳統', '區域', '這裡長', '樹豆', 'vataan', '語樹豆', 'Palakaw', '樹枝', '三層', '結構物', '喜歡', '小魚', '棲息', '時間', '將九芎', '樹枝間', '抖入', '魚網', '而藏', '底層', '土虱', '鰻魚', '他們', '堅守', '原則', '...', '孕育出', '不竭', '攀附', '一堂', '水塘', '竹筒', '竹子', '生活', '美食', '中空', '展出', '放入', '三角', '昔日', '出入', '智慧', '特有', '之意', '感受', '即可', '水面', '居住', '天然', '自由', '放在', '作出', '自然', '提出']"
3156,3156,大峰峰火山頸,,大峰峰火山頸是東部海岸火山運動的重要遺跡之一，奇特且完整的百褶裙式塔狀柱狀節理是不多見的地質景觀，可媲美澎湖員貝島擁有相同柱狀節理的地景，周圍也有許多火山運動的遺跡，包括一般火山運動的柱狀節理及火山頸露頭，是地質學上極具有參考研究價值的地貌。,886-8-9832139,臺東縣962長濱鄉台11線約73公里處,花蓮縣,豐濱鄉,搭乘公車：1.搭乘鼎東客運海線8101、8102、8105、8119次公車於大峰村站下車，沿台11線北上方向行進約250公尺後轉往海岸邊小路，續行約500公尺即可到達。2.搭乘花蓮客運1145次公車於大峯村站下車，沿台11線北上方向行進約250公尺後轉往海岸邊小路，續行約500公尺即可到達。,全日,,121.49517,23.43406,,,1.地質景觀生成不易，請勿隨意破壞或盜取。2.因景點靠近海岸，請注意自身安全。,,"['火山', '運動', '遺跡', '柱狀', '節理', '東部', '狀柱', '狀節理', '地質', '景觀', '員貝島', '地景', '周圍', '頸露頭', '地質學', '上極', '參考', '價值', '百褶裙', '峰峰', '澎湖', '媲美', '奇特', '地貌', '海岸', '完整', '相同', '研究', '一般', '包括', '重要']"
3163,3163,遠雄海洋公園,,遠雄海洋公園座落於臺灣最美麗的東海岸風景區台灣第一座最大最美且具國際水準的海洋休閒、旅遊及渡假的王國。,886-3-8123199,花蓮縣壽豐鄉鹽寮村福德189號,花蓮縣,壽豐鄉,,平 日-09：30 ~ 17：00暑 假-09：00 ~ 18：30,,121.60337,23.90136,,全票890元；優待票790元學童/博愛票590元；特惠票420元幼童票390元,,,"['最美', '海洋', '渡假', '遠雄', '公園', '風景區', '台灣', '具國際', '水準', '休閒', '旅遊及', '王國', '座落', '第一座', '海岸', '最大']"
3164,3164,磯崎海濱休憩區,,磯崎海濱休憩區位於花蓮縣豐濱鄉的磯崎海灣，距離花蓮市約40公里，周邊群山環繞，在休憩區南端，點綴了一座高約100公尺的大石鼻山，並設有一條大石鼻山步道，長910公尺左右，大部分為枕木及石頭階梯構成。,886-3-8711381,花蓮縣豐濱鄉磯崎村6-1號,花蓮縣,豐濱鄉,,視天候及海上風浪情形開放，營運廠商詢問電話：03-8711235,,121.54963,23.70055,,【磯崎海水浴場】全票:NT$100元團體、學生票:NT$50元半票:NT$30元(兒童身高110至140公分)兒童110公分以下免費,,,"['休憩', '大石', '崎海濱', '區位', '花蓮縣', '豐濱', '崎海灣', '距離', '花蓮市', '40', '周邊', '環繞', '點綴', '高約', '100', '鼻山', '鼻山步', '910', '石頭', '階梯', '構成', '枕木', '群山', '南端', '一座', '公里', '大部分', '左右']"
3165,3165,牛山海岸水璉濕地,,牛山自然保護區位於水璉、番薯寮坑至磯崎之間，為花東沿海五處自然保護區之一。不僅擁有美麗的自然風景，牛山鼻的曲折紋理更是地質學的優良教材。水璉為漢族與阿美族混合居住的社區，原灌木叢林茂密，水源豐富，「水蛭」很多，因而阿美族人稱此地為「基偉地岸」(Ciwdiyan)，即「盛產水蛭」之涵意，漢人取其諧音稱為「水璉」。,886-3-8601400,花蓮縣壽豐鄉水璉村牛山39-5號,花蓮縣,壽豐鄉,,上午9:00到晚上9:00,,121.5694,23.76344,,牛山呼庭園區需付50元門票，可抵用餐飲,,,"['水璉', '阿美族', '保護區', '牛山', '水蛭', '自然', '涵意', '至磯崎之間', '花東', '五處', '美麗', '風景', '紋理', '地質學', '優良', '為漢族', '社區', '叢林', '豐富', '人稱', '基偉', '地岸', 'Ciwdiyan', '盛產', '漢人取', '其諧', '音稱', '番薯', '教材', '茂密', '灌木', '水源', '曲折', '混合', '居住', '沿海', '因而', '很多']"
3166,3166,蕃薯寮,,蕃薯寮位於海岸公路18號橋旁，是東海岸最為獨特的峽谷景觀，在此可以觀賞到公路兩側，因不同地質在溪流的堆積及切割作用下，形成對比明顯的地形景觀。,886-3-8671326,花蓮縣壽豐鄉水璉村芳寮坑十八號橋旁,花蓮縣,壽豐鄉,,全日,,121.55528,23.74683,,免費,,,"['景觀', '海岸公路', '蕃薯', '18', '號橋', '最為', '獨特', '峽谷', '觀賞', '兩側', '地質', '堆積', '比明顯', '溪流', '切割', '海岸', '地形', '公路', '作用', '不同']"
3167,3167,和南寺,,和南寺位在鹽寮村海岸公路旁，是傳慶老和尚於西元1967年(民國56年)翻山越嶺到此修行時所創建，不但是東部著名的佛門道場，更是佛教藝術的殿堂。,886-3-8671001,花蓮縣壽豐鄉鹽寮村191號,花蓮縣,壽豐鄉,,07:00～19:00,,121.59874,23.87652,,,,,"['海岸公路', '南寺位', '傳慶', '西元', '1967', '民國', '56', '時所', '創建', '東部', '佛門', '道場', '藝術', '山越', '殿堂', '修行', '老和尚', '佛教', '著名', '但是']"
3168,3168,秀姑巒溪,,秀姑巒溪發源於秀姑巒山，全長103公里，全年河水豐沛，為臺灣東部最大的河川。河道迂迴，流經瑞穗切穿海岸山脈，形成峽谷與曲流；每年五月到十月豐水期，可讓遊客體驗泛舟活動的刺激與快感,886-3-8875400,花蓮縣瑞穗鄉中山路三段215號,花蓮縣,瑞穗鄉,,24,,121.40109,23.48786,,,,,"['秀姑巒', '發源', '姑巒', '103', '豐沛', '灣東部', '流經', '切穿', '山脈', '峽谷', '豐水期', '遊客', '體驗', '活動', '瑞穗', '曲流', '泛舟', '快感', '河川', '五月', '河水', '河道', '海岸', '十月', '全年', '公里', '刺激', '最大']"
3169,3169,靜浦北迴歸線界標,,北迴歸線是北半球溫帶和熱帶的分界線，環繞北半球十六個國家，其中在臺灣就有三座北迴歸線標碑，分別位於嘉義的水上、花蓮的舞鶴及花蓮的靜浦，每年夏至時（6月21日或22日），正午的太陽直射此地,886-3-8671326,花蓮縣豐濱鄉臺11線南下，經長虹橋後，北回歸線標即位於臺11線70公里處,花蓮縣,豐濱鄉,,24HR,,121.49617,23.45141,,,,,"['歸線', '花蓮', '北半球', '溫帶', '熱帶', '環繞', '個國家', '灣就', '標碑', '分別位', '嘉義的', '舞鶴及', '靜浦', '21', '22', '太陽', '夏至', '三座', '直射', '正午', '分界', '水上', '十六']"
3170,3170,月洞遊憩區,,月洞位於花蓮縣豐濱鄉，在石梯坪之南距港口村約1公里，是一個天然的鐘乳石洞穴，也是港口部落原住民眼中的一塊淨地；洞中有積水成池大約5公尺，湖水會隨著月亮盈虧而漲落，所以稱作「月洞」，又名「月井」,886-3-8781022,花蓮縣豐濱鄉港口村石梯坪53號,花蓮縣,豐濱鄉,,09:00~17:00,,121.50773,23.48005,,全票100元，半票50元(包含搭船參觀及解說費用),,,"['港口', '原住民', '洞位', '花蓮縣', '豐濱', '南距', '村約', '鐘乳石', '一塊', '洞中', '積水成', '池大約', '盈虧', '漲落', '石梯', '洞穴', '湖水', '月亮', '眼中', '又名', '部落', '天然', '公里', '所以']"
3171,3171,芭崎眺望台,,1、絕美海景芭崎賣店  2、東海岸沿線上絕美的休憩區 3、可眺望磯崎海灣與大石鼻山山頭 ,886-3-8671326,花蓮縣豐濱鄉臺11線31公里處,花蓮縣,豐濱鄉,,全日,,121.55857,23.73134,,免費,,,"['絕美', '芭崎賣', '沿線', '上絕', '美的', '崎海灣', '鼻山山頭', '海景', '休憩', '眺望', '大石', '海岸']"
3172,3172,池南國家森林遊樂區,,池南是花蓮林業史上三大傳奇之一：哈崙山地鐵道的起點。從1930年開始，日本人規劃、國民政府擴建，打造了全長將近50公里，花蓮最輝煌的林業鐵道帝國。直到1989年全面禁伐，地處深山的哈崙工作站裁撤，從此與世隔絕，僅留下池南轉運站轉型為森林遊樂區，讓人們緬懷這段林業時光。除了歷史，池南的森林以桑科、樟科為主，交雜著光蠟樹等造林樹種，東部特有的烏頭翁時常出沒其中，也是人們親近大自然的好選擇。,886-3-8641594,花蓮縣壽豐鄉花蓮縣壽豐鄉池南村林園路76號,花蓮縣,壽豐鄉,,08:00~17:00,,121.50201,23.91821,,全票/50元(假日)40元(非假日)；半票/25元；優待票/10元；免票,,,"['池南', '哈崙', '鐵道', '林業', '人們', '森林', '花蓮林業史', '三大傳奇', '起點', '1930', '開始', '人規劃', '國民', '擴建', '將近', '50', '花蓮', '最輝煌', '帝國', '1989', '禁伐', '地處', '從此', '世隔絕', '轉運站', '轉型', '遊樂區', '緬懷', '這段', '時光', '歷史', '樟科為', '交雜', '著光', '蠟樹', '樹種', '東部', '烏頭', '時常出', '親近', '選擇', '桑科', '工作站', '裁撤', '造林', '深山', '大自然', '打造', '特有', '山地', '公里', '留下', '直到', '全面', '日本', '政府']"
3173,3173,松園別館,,位在美崙山的松園別館是花蓮縣僅存日治時期最完整的一棟軍事建築，擁有制高點的地理優勢，視野良好，不但可以監控眼前太平洋海面上的軍艦船隻，也能掌握從前附近南機場飛機的起降，加上滿天茂密的松樹枝葉，讓這棟灰色建築更是顯得隱密。,886-3-8356510,花蓮縣花蓮市花蓮市松園街65號(原水源街26號),花蓮縣,花蓮市,,每月第二個週二休館。週一至週日上午9點至下午6點。,,121.61606,23.98254,,102年11月15日起松園別館收取門票，全票50元，半票25元，團體票40元，其餘依據花蓮縣歷史建築松園別館門票收費基準表。,,,"['建築', '美崙山', '松園', '別館', '花蓮縣', '僅存', '日治', '時期', '一棟', '軍事', '制高點', '優勢', '視野', '監控', '軍艦', '從前', '南機場', '飛機', '滿天', '松樹枝葉', '這棟', '顯得', '隱密', '起降', '茂密', '灰色', '海面', '太平洋', '地理', '完整', '掌握', '不但', '良好']"
3174,3174,佐倉步道,,佐倉步道位於花蓮市西郊，原為台泥採礦道路，經花蓮林區管理處整修規劃為適合民眾健走休憩的生態步道，交通便利，路緩好走，沿途植栽豐富，草地綠意盎然，隨著山勢蜿蜒而上，能逐漸俯瞰整個奇萊平原及壯闊的太平洋,886-3-8325141,花蓮縣吉安鄉沙婆礑山東麓,花蓮縣,秀林鄉,,24H,,121.57653,24.01859,,,,,"['步道', '倉步', '花蓮市', '原為', '台泥', '採礦', '經花', '蓮林區', '規劃', '適合民眾', '健走', '生態', '路緩', '植栽', '豐富', '綠意', '山勢', '逐漸', '整個', '奇萊', '壯闊', '休憩', '盎然', '俯瞰', '整修', '西郊', '蜿蜒', '草地', '便利', '太平洋', '平原', '道路', '交通', '管理']"
3175,3175,楓林步道,,位於花蓮縣吉安鄉福興村全長近3公里的「楓林步道」，沿途種植了各種花卉，春天一到，杜鵑、梅花、桃花相繼盛開，花丁子及馬櫻丹相互爭豔；到了秋季，漫步在火紅色的楓葉林中有如置身於詩畫之中，令人難以忘懷。,886-3-8523126,花蓮縣吉安鄉福興村,花蓮縣,吉安鄉,,24h,,121.54827,23.96948,,,,,"['花蓮縣', '鄉福興村', '楓林步', '種植', '各種', '杜鵑', '相繼盛開', '花丁子', '櫻丹', '火紅色', '楓葉', '詩畫', '難以', '忘懷', '置身', '吉安', '漫步', '桃花', '有如', '林中', '花卉', '梅花', '秋季', '一到', '春天', '相互', '公里', '之中']"
3176,3176,初英親水生態公園,,初英親水生態公園位於初英山自行車道上，內設有生態池、小橋流水、水車涼亭，還有兒童遊憩設施供親子遊玩，周圍樟樹、落羽松樹林立，結合牧場、田園景緻、青青綠地以及潺潺的流水都是初英生態親水公園的魅力所在,886-3-8523126,花蓮縣吉安鄉南華村初英親水生態公園 ( 初英自行車道上),花蓮縣,吉安鄉,,全天,,121.54219,23.95456,,,,,"['流水', '初英親', '態公園', '車道', '內設', '態池', '小橋', '水車', '涼亭', '兒童', '遊憩', '設施供', '親子遊', '周圍', '樟樹', '落羽', '松樹', '結合牧場', '田園', '綠地', '英生態', '親水公園', '英山', '有生', '青青', '潺潺', '林立', '水生', '魅力', '自行', '所在']"
3177,3177,知卡宣森林公園,,「知卡宣」是吉安鄉的舊名，1985年花蓮縣政府將苗圃遷至此處，重新規劃整修，讓知卡宣成為自然生態的重要基地，也是假日遊憩的重要場所。園區植物種類豐富，「原生植物區」更能見到珍貴的在地原生物種，是生態保育的教科書，另外還有水生植物區、綠色廣場區等八大區域,886-3-8233575,花蓮縣吉安鄉中正路二段(花蓮監理站對面),花蓮縣,吉安鄉,,每日大門開放及人員管理時間為上午07:30至下午17:00，其餘2個東側門及南側門全天24小時開放，遊客隨時均可入園遊覽賞玩。,,121.5843,23.95604,,免費,,,"['生態', '原生植物', '教科', '知卡宣', '舊名', '1985', '花蓮縣', '規劃', '知卡', '宣成', '遊憩', '場所', '園區', '種類', '豐富', '珍貴', '地原', '綠色', '廣場區', '區域', '保育', '苗圃', '吉安', '水生植物', '整修', '假日', '更能', '八大', '重要', '至此', '生物', '植物', '重新', '自然', '另外', '政府']"
3178,3178,蓮城蓮花園,,目前園區內育有60多種不同香味與花色的蓮花品種，每日皆可採收數千枝的蓮花，於2002年獲得十大傑出青年神農獎的肯定。,886-3-8532828,花蓮縣吉安鄉南華村南華五街66號,花蓮縣,吉安鄉,,上午08：00到18：00止,,121.54491,23.95688,,,,,"['蓮花', '千枝', '園區', '內育', '60', '多種', '品種', '採收數', '2002', '獲得', '傑出', '神農獎', '花色', '香味', '十大', '每日', '青年', '肯定', '不同']"
3179,3179,赤柯山,,與六十石山齊名的赤科山，以「赤科三景」與金針花海聞名，每逢8月至9月的金針花季，整片山丘開滿了黃澄澄的金針花海，那萬花齊開的壯闊景致，讓來訪的遊客驚呼之餘，還能看見農民穿梭在金針花田，忙著採收含苞待放的金針這番人文景致。,886-3-8875306,花蓮縣玉里鎮觀音里高寮村,花蓮縣,玉里鎮,,24HR,,121.37469,23.3913,,,,,"['金針', '花海', '景致', '花田', '齊名', '赤科山', '赤科三景', '聞名', '花季', '開滿', '那萬花', '齊開', '壯闊', '來訪', '遊客', '驚呼', '之餘', '農民', '採收', '這番', '含苞待放', '整片', '石山', '穿梭', '六十', '山丘', '人文']"
3180,3180,明利飛行傘起飛場,,,886-9-35068298,花蓮縣萬榮鄉明利村,花蓮縣,萬榮鄉,,全天,,121.3929,23.70576,,,,,['nan']
3181,3181,鐵份瀑布,,鐵份瀑布又名為石公瀑布，水流主要出自海岸山脈西側的山頭，瀑布高約26公尺，想要看見鐵份瀑布的銀絹身影，除了要走一小段石階，更須奮力爬上攔砂壩，當你聽見陣陣水流聲，就會知道鐵份瀑布離你不遠了。,886-3-8880181,花蓮縣玉里鎮東豐里內,花蓮縣,玉里鎮,,08:00-17:00,,121.35086,23.3509,,,,,"['瀑布', '鐵份', '水流', '石公', '山脈', '西側', '山頭', '高約', '26', '銀絹', '石階', '更須', '奮力', '攔砂壩', '當你', '陣陣', '不遠', '一小', '身影', '出自', '又名', '海岸', '想要', '知道', '主要']"
3182,3182,國立東華大學,,壽豐主校區坐落於花東縱谷北端,886-3-8635000,花蓮縣壽豐鄉大學路二段一號,花蓮縣,壽豐鄉,,全天,,121.54452,23.89231,,無，開車需換證件即可進入,,,"['壽豐主', '校區', '花東', '縱谷', '北端']"
3183,3183,新城天主堂,,新城天主堂是台灣少見日本神社與西方天主教堂融合的特色建築，諾亞方舟的教會建築被綠色藤蔓覆蓋更增添神秘感,886-3-8611722,花蓮縣新城鄉博愛路64號,花蓮縣,新城鄉,,隨時，但建議白天去,,121.6498,24.1281,,免費,,,"['建築', '台灣少', '諾亞', '教會', '綠色', '覆蓋', '神社', '天主堂', '神秘感', '天主教堂', '方舟', '藤蔓', '新城', '增添', '融合', '特色', '西方', '日本']"
3184,3184,慈濟靜思精舍,,慈濟靜思精舍位於新城鄉康樂村，是佛教慈濟功德會所在地，一棟灰瓦白牆的樸素建築，就座落在佳民國小旁等待著有緣人的到來。整座精舍像是小型的日式庭園，充滿平和與寧靜,886-3-8266779,花蓮縣新城鄉康樂村精舍街88巷1號,花蓮縣,新城鄉,,導覽時間上午06：00至晚上06：00,,121.60147,24.05458,,,,,"['精舍', '慈濟靜思', '鄉康樂村', '慈濟', '一棟', '灰瓦', '白牆', '素建築', '佳民國', '小旁', '庭園', '充滿', '寧靜', '日式', '座落在', '整座', '功德', '平和', '新城', '所在地', '佛教', '小型', '著有', '像是', '等待']"
3185,3185,米棧古道,,米棧古道是昔日東海岸水璉與壽豐鄉的挑夫路。村民肩挑稻米，翻越海岸山脈、橫渡溪流，將米賣至壽豐鄉，而米棧村即為米糧堆放的中斷站,886-9-22305076,花蓮縣壽豐鄉米棧村,花蓮縣,壽豐鄉,,全年無休,,121.52487,23.79889,,無,,,"['豐鄉', '海岸', '米棧', '水璉', '山脈', '橫渡', '將米', '至壽', '而米', '棧村', '中斷', '挑夫', '肩挑', '古道', '翻越', '堆放', '溪流', '稻米', '昔日', '村民']"
3186,3186,鯉魚潭,,鯉魚潭位於壽豐鄉池南村鯉魚山腳下，因東傍鯉魚山而被命名為鯉魚潭。鯉魚潭可分潭南、潭北，潭北附近有銅門慕谷慕魚、翡翠谷，潭南則鄰近池南森林遊樂園區等景點,886-3-8641691,花蓮縣壽豐鄉池南村環潭北路100號,花蓮縣,壽豐鄉,,遊客中心：08:30-17:30,,121.50965,23.93045,,,,,"['鯉魚', '潭北', '魚潭位', '壽豐', '鄉池', '山腳', '因東', '魚山', '魚潭', '分潭南', '銅門', '慕谷', '慕魚', '翡翠谷', '南則', '鄰近', '池南', '遊樂園區', '景點', '南村', '命名', '森林']"
3187,3187,荖溪、白鮑溪親水園區,,【白鮑溪親水園區】位於花蓮壽豐，導航可以直接設定＂白鮑溪＂就可以到了，或是花蓮市走台9丙線，經過鯉魚潭，至重光橋右轉；或再直行200公尺過荖溪橋右轉白鮑溪產業道路就可以看到了！抵達時有一片空地可以停放車輛，往下走就可以親近溪水了，是不需要跋山涉水下車就可以玩的溪邊玩水景點！,886-3-8221141,花蓮縣壽豐鄉鯉魚潭上游,花蓮縣,壽豐鄉,,,,121.51108,23.88973,,,,,"['鮑溪親', '水園區', '花蓮壽豐', '導航', '設定', '鮑溪', '花蓮市', '丙線', '魚潭', '橋右轉', '200', '溪橋', '轉白', '鮑溪產業', '抵達時', '車輛', '親近', '下車', '溪邊', '水景', '跋山涉水', '重光', '往下走', '直行', '溪水', '停放', '空地', '道路', '一片', '看到', '直接', '需要']"
3188,3188,玉里協天宮,,玉里協天宮，臺灣花蓮縣玉里鎮廟宇，主祀關聖帝君，亦稱玉里關帝廟，有「花東三大廟宇」之稱,886-3-8882252,花蓮縣玉里鎮民生街52巷13號,花蓮縣,玉里鎮,,晚上21點前,,121.31815,23.33356,,,,,"['玉里', '協天宮', '灣花蓮縣', '玉里鎮', '廟宇', '主祀', '關聖', '稱玉里', '關帝', '花東', '三大廟', '之稱', '帝君']"
3189,3189,豐田移民村﹙菸樓﹚,,熊本一家參觀完文史館後照著豐田文史館上的景點地圖準備尋找全台唯一僅存的廣島式菸樓。,886-3-8653830,花蓮縣壽豐鄉豐山村、豐裡村、豐坪村等三村總稱,花蓮縣,壽豐鄉,,早上9:00~下午17:00（週一休館）,,121.50785,23.84109,,免費參觀。(該地多處房舍仍有居民居住，欲參觀請事先徵求居民同意),,,"['文史', '熊本', '參觀', '館後照', '豐田', '景點', '地圖', '準備', '尋找', '僅存', '廣島式', '全台', '一家']"
3190,3190,六十石山,,六十石山、赤科山、太麻里山為花東縱谷三大金針栽植區，也是每年8月至9月賞金針花海的好去處。六十石山位在富里鄉竹田村東側海拔約800公尺的海岸山脈上，經過一段蜿蜒的山路後，眼前出現無邊無際的田野景致，幾座農舍、涼亭散落在金黃色的金針花田間，形成一幅樸質的田園畫作,886-3-8821725,花蓮縣富里鄉竹田村,花蓮縣,富里鄉,,終年開放，金針花季車潮眾多有管制。,,121.3176,23.21907,,無,,,"['石山', '六十', '赤科山', '太麻里', '山為', '花東', '縱谷', '三大金針', '賞金針', '富里', '竹田村', '東側', '800', '山脈', '出現', '無邊', '無際', '幾座', '農舍', '涼亭', '金黃色', '金針', '花田間', '樸質', '田園', '畫作', '花海', '景致', '栽植', '散落', '田野', '蜿蜒', '山路', '一幅', '海岸', '海拔']"
3191,3191,鳳林校長夢工廠,,校長夢工廠是閒置空間再利用，在日據時期為「鳳林支廳長官舍」， 後來為鳳林國中第一屆校長張七郎的宿舍,886-3-8764779,花蓮縣鳳林鎮民生街10號,花蓮縣,鳳林鎮,,每天上午8：30-12：00下午 13：30-17：00,,121.44937,23.74778,,,,,"['校長', '工廠', '閒置', '空間', '日據', '時期', '鳳林', '支廳', '官舍', '鳳林國', '張七郎', '宿舍', '第一']"
3192,3192,七星潭風景區,,七星潭富有詩意的名稱，據說是位於花蓮師範學院和花蓮機場一帶，早年有零星湖泊散佈，後來因建設需要而填實。現在一般稱七星潭，是指美崙工業區和花蓮機場以北的地區，有斷層形成的海峽與優美的弧形海灣，具有豐富的自然人文景觀,886-3-8221592,花蓮縣新城鄉海岸路,花蓮縣,新城鄉,,全年開放，颱風天時會有管制,,121.62852,24.03202,,,,,"['花蓮', '機場', '七星', '詩意', '名稱', '花蓮師', '範學院', '一帶', '因建設', '填實', '現在', '指美崙', '工業區', '地區', '有斷', '海峽', '美的', '海灣', '豐富', '文景', '弧形', '零星', '自然人', '湖泊', '富有', '早年', '以北', '需要', '一般']"
3193,3193,鳳林客家文物館,,座落在鳳林公園內的客家文物館，1993年成立至今，是臺灣東部第一座客家文物館。館藏分為兩層樓，一樓展示移居花蓮的客家人墾拓歷史、人文信仰、日常運輸、常用器具，二樓展示農用耕作器具及傳統服飾等。,886-3-8762625,花蓮縣鳳林鎮中華路164號,花蓮縣,鳳林鎮,,每日上午08：30-12：00，下午13：30-17：00、星期一、民俗節日休館,,121.45143,23.74764,,,,,"['客家', '器具', '文物', '展示', '鳳林', '公園', '1993', '灣東部', '館藏', '分為', '兩層', '一樓', '花蓮', '墾拓', '歷史', '運輸', '二樓', '農用', '傳統', '服飾', '座落在', '客家人', '第一座', '人文', '耕作', '移居', '信仰', '日常', '常用', '至今', '成立']"
3194,3194,花蓮觀光酒廠,,位於花蓮市的花蓮觀光酒廠，舊址原在目前的花蓮文化創意產業園區，當時在日治時期為民營的「宜蘭振拓株式會社花蓮港稻住工場」，以製造紅酒、米酒為主,886-3-8227151,花蓮縣花蓮市美工路六號,花蓮縣,花蓮市,,08:00-17:00,,121.63684,24.01762,,,,,"['花蓮', '社花', '花蓮市', '觀光', '酒廠', '舊址', '創意', '產業', '園區', '日治', '時期', '為民營', '宜蘭振拓', '株式', '蓮港', '稻住', '工場', '為主', '米酒', '文化']"
3195,3195,安通溫泉,,花蓮溫泉飯店推薦安通溫泉飯店。安通溫泉完整保留日式風情建築，包含獨立溫泉湯屋、露天SPA、室內男湯女湯及各式餐廳休閒設備座落於花東縱谷間的安通溫泉飯店擁有青山,886-3-8886108,花蓮縣玉里鎮樂合里溫泉36-3號,花蓮縣,玉里鎮,,08：00~23：00全年無休男、女大浴場每日09:00~14:00為清潔保養時間，暫停開放。,,121.3419,23.28056,,泡湯：成人300元，110-140cm 150元，平日打八折。住宿：1100/人(6人房，平日打5.5折)，另有雙人、四人房。,,,"['溫泉', '飯店', '安通', '花蓮', '推薦', '風情', '建築', '獨立', '湯屋', 'SPA', '湯女', '湯及', '餐廳', '休閒', '設備', '花東', '縱谷間', '日式', '座落', '各式', '青山', '露天', '保留', '完整', '包含']"
3196,3196,林田山文化園區,,過去有「小上海」之稱的林田山林場，被稱為森坂（日語發音：摩里薩卡），以保存最完整的伐木基地聞名。雖然林田山昔日風華不在，但園區中不僅有各種伐木器具、傳統消防物等豐富的文物，還留有頗具規模的中山堂、日式檜木建築群，有著濃厚林業歷史的林田山，成為旅客來花東縱谷必拜訪的人文景點,886-3-8752100,花蓮縣鳳林鎮森榮里林森路99號,花蓮縣,鳳林鎮,,09:00~17:00(週一休館),,121.39858,23.718,,,,,"['林田山', '伐木', '中山堂', '過去', '之稱', '林田', '森坂', '日語', '發音', '摩里', '薩卡', '聞名', '雖然', '風華', '但園區', '中不僅', '各種', '傳統', '物等', '豐富', '具規模', '檜木', '建築群', '濃厚林業', '歷史', '來花東', '縱谷', '必拜訪', '日式', '文景', '消防', '留有', '器具', '山林', '旅客', '昔日', '文物', '完整', '保存', '上海']"
3197,3197,向日廣場,,「向日廣場」座落於花蓮漁港，四周被太平洋、賞鯨碼頭、花蓮漁市場及花蓮區漁會所環抱，這裡是太平洋第一道曙光灑落之地，也是「向日」廣場的由來,886-3-8223118,花蓮縣花蓮市花蓮市港濱路35-1號,花蓮縣,花蓮市,,碼頭：全年開放賞鯨：請聯絡各賞鯨公司出航時間,,121.63827,23.99467,,免費參觀．,,,"['廣場', '太平洋', '花蓮漁港', '賞鯨', '碼頭', '花蓮', '漁市場', '花蓮區', '漁會', '所環', '灑落', '座落', '第一道', '曙光', '四周']"
3198,3198,瓦拉米步道,,瓦拉米步道是八通關越嶺道東段的一部分，全長約14公里，坡度緩、視野佳，步道沿著拉庫拉庫溪谷而上，具有亞熱帶至寒帶特色的完整生態體系，蘊育著豐富多樣的動植物資源,886-3-8887560,花蓮縣卓溪鄉瓦拉米步道,花蓮縣,卓溪鄉,,09:00～16:30 (每月第二個星期二休館，遇例假日則順延一天）,,121.23561,23.32904,,無門票，東部園區入口－玉里至南安聯外道路(台30線)、南安遊客服務中心、南安至瓦拉米步道系統。(自佳心到瓦拉米須辦理入園及入山證),,,"['步道', '米步', '八通', '關越', '東段', '14', '視野佳', '沿著拉庫', '拉庫', '亞熱帶', '寒帶', '生態', '體系', '蘊育', '豐富', '多樣', '資源', '溪谷', '瓦拉', '坡度', '特色', '完整', '公里', '植物', '一部分']"
3199,3199,美崙山公園,,美崙山公園. 美崙山讓花蓮市成為一座會呼吸的城市，有大草皮可遊憩，有蜿蜒的步道可上山，也有美麗的海景可遠眺。,886-3-8227171,花蓮縣花蓮市新興路,花蓮縣,花蓮市,,美崙山公園全年開放，而生態展示館及科博館每週一休館。,,121.61282,23.99174,,免費,,,"['美崙山', '步道', '公園', '花蓮市', '有大', '可遊憩', '美麗', '可遠眺', '海景', '草皮', '蜿蜒', '上山', '呼吸', '一座', '城市']"
3200,3200,小天祥,,富東公路上的石門，因溪水長年洗刷削出一條陡峭的小峽谷，長約八百公尺的蝕谷地形，揭露出溪谷兩岸台灣最古老地-「都巒山層」,886-3-8781452,花蓮縣富里鄉豐南村,花蓮縣,富里鄉,,小天祥位於公路旁，只要路通就全年無休,,121.27846,23.14282,,無,,,"['富東', '石門', '削出', '小峽谷', '兩岸', '台灣', '山層', '揭露出', '溪谷', '洗刷', '溪水', '八百', '陡峭', '古老', '地形', '公路']"
3201,3201,北濱公園,,位於花蓮市區東北角的北濱公園，位置介於花蓮港和美崙溪之間，南可通南濱公園，北則可前往七星潭。 公園佔地廣闊，沿濱海大道前行可清楚看見太平洋毫無遮掩的呈現眼前,886-3-8322141,花蓮縣花蓮市海濱街上,花蓮縣,花蓮市,,全年,,121.61744,23.97886,,不須門票,,,"['公園', '花蓮市', '區東', '北濱', '花蓮港', '美崙溪', '南可通', '南濱', '北則', '地廣闊', '沿濱海', '毫無', '呈現', '北角', '七星', '遮掩', '前行', '大道', '太平洋', '位置', '清楚']"
3202,3202,崙天遊憩區,,崙天遊憩區位於花蓮縣卓溪鄉古風村崙天部落，遊憩區內有餐飲中心、停車場、住宿區、等遊憩相關服務設施，遊憩區裡的服務中心、圓形露天劇場等建築外觀都展現出濃濃的布農族特色。,886-3-8882765,花蓮縣卓溪鄉古風村崙天18-1號,花蓮縣,卓溪鄉,,24,,121.26626,23.22083,,,,,"['遊憩', '服務', '卓溪', '天遊', '憩區位', '花蓮縣', '鄉古風', '村崙天', '區內', '有餐', '停車場', '相關', '設施', '區裡', '圓形', '劇場', '建築外', '觀都展', '現出', '濃濃', '布農族', '中心', '露天', '住宿', '部落', '特色']"
3203,3203,花蓮觀光糖廠,,2002年因製糖成本過高，花蓮糖廠不得已停產並關閉，最後結合觀光轉型並更名「花蓮觀光糖廠」，園區內規劃有客服中心、日式木構造建築群、冰品販賣部、特產展售商店、餐廳,886-3-8705881,花蓮縣光復鄉大進村糖廠街19號,花蓮縣,光復鄉,,觀光糖廠園區為開放式空間，全年開放。商店街各商家營業時間為09:00～18:00；冰品販賣時間為：08:00～20:00（七、八月份08:00～21:00）。,,121.42081,23.65655,,無,,,"['2002', '過高', '花蓮糖', '停產並', '關閉', '最後結合', '觀光', '轉型並', '花蓮觀', '光糖廠', '園區', '規劃', '木構', '造建築群', '冰品', '販賣部', '特產展售', '餐廳', '日式', '客服', '不得已', '商店', '更名', '成本', '中心']"
3204,3204,馬太鞍濕地生態園區,,花蓮光復鄉的馬太鞍濕地，是一處湧泉不絕的天然沼澤濕地，並孕育出豐富的鳥類、蛙類、底棲性魚類等多樣化自然生態。還能體驗獨特的巴拉告生態捕魚法，讓人不僅可以上一堂生態課，還能嘗到現撈的魚蝦、鹽烤吳郭魚，以及特有的石頭火鍋，來一場原民美食饗宴,886-3-8700015,花蓮縣光復鄉大全村大全街42巷15號,花蓮縣,光復鄉,,,,121.40917,23.65804,,不須門票,,,"['生態', '花蓮光', '太鞍濕', '湧泉', '不絕', '沼澤濕', '豐富', '鳥類', '蛙類', '底棲性', '魚類', '多樣化', '體驗', '獨特', '告生', '態捕', '魚法', '嘗到', '現撈', '魚蝦', '吳郭魚', '石頭', '火鍋', '一場', '原民', '孕育出', '巴拉', '一堂', '美食', '特有', '天然', '自然']"
3205,3205,太巴塱部落,,位在光復鄉的太巴塱部落，在阿美族語有螃蟹的意思，因此在部落中處處可見生動的木雕螃蟹圖騰。這裡不僅保留阿美族傳統家屋、部落刀槍、酒皿等文物,886-3-8703141,花蓮縣光復鄉南富村富愛街22號,花蓮縣,光復鄉,,部落為開放式，此為社區旅遊，以不打擾原有社區作息為主,,121.44756,23.66,,無,,,"['阿美族', '部落', '螃蟹', '語有', '中處', '生動', '圖騰', '傳統', '刀槍', '酒皿', '家屋', '木雕', '文物', '保留', '意思']"
3206,3206,和仁海灘,,蘇花公路上的國家公園和仁界碑旁，就是和仁步道的入口(步道及入口處現因風災已損壞)，步道長約165公尺左右，出步道走過一小段小樹林後，就可到達和仁海灘。,886-3-8621100,花蓮縣秀林鄉富世村富世291號,花蓮縣,秀林鄉,,隨意而行，但仍建議白天前往,,121.70759,24.23071,,免費,,,"['步道', '入口', '蘇花', '國家', '公園', '仁步', '處現', '因風災', '損壞', '165', '出步', '走過', '小樹林', '仁海灘', '界碑', '一小', '公路', '左右']"
3207,3207,大禹嶺,,"大禹嶺位於臺灣中央山脈主稜鞍部，介於合歡山和畢祿山之間，海拔2,565公尺，是中部橫貫公路的中點，也是臺中、南投、花蓮3縣市的交界。公路在此三叉，一往合歡山，一往梨山，還有一條是前往太魯閣的，因處集散之地，早期路旁多有農家聚集，販售高山蔬果，在青山白雲間透著人的淳厚和鄉野趕集的熱絡",886-3-8621100,花蓮縣秀林鄉太魯閣國家公園境內,花蓮縣,秀林鄉,,全天開放,,121.31209,24.18053,,,,,"['公路', '嶺位', '山脈主', '鞍部', '合歡', '畢祿山', '565', '橫貫', '中點', '花蓮', '縣市', '合歡山', '梨山', '太魯閣', '因處', '農家', '販售', '白雲間', '透著', '鄉野', '趕集', '熱絡', '淳厚', '南投', '三叉', '一往', '蔬果', '集散', '青山', '大禹', '路旁', '交界', '多有', '聚集', '高山', '之地', '海拔', '中部', '早期', '中央']"
3208,3208,關原雲海,,關原海拔2374公尺，因其高度、氣候條件及立霧溪水氣，常匯集成雲海，充滿飄邈朦朧而美麗。,886-3-8621100,花蓮縣秀林鄉中橫公路117.3公里處,花蓮縣,秀林鄉,,全年,,121.33805,24.18663,,免費,,,"['關原', '2374', '氣候', '條件', '立霧', '常匯', '雲海', '充滿', '飄邈', '朦朧', '美麗', '溪水', '集成', '海拔', '高度']"
3209,3209,新白楊服務站,,景點簡介新白楊為合歡山系，海拔1644公尺，太魯閣國家公園設有停車場及公廁，提供遊客短暫休憩。,886-3-8621100,花蓮縣秀林鄉位在中橫公路142.6公里處,花蓮縣,秀林鄉,,全年,,121.43239,24.19826,,免費,,,"['景點', '簡介新白', '楊為', '合歡', '1644', '太魯閣', '國家', '公園', '停車場', '公廁', '遊客', '休憩', '山系', '海拔']"
3210,3210,西寶國小,,位於太魯閣國家公園內，為一所具前瞻性開放森林教育實驗學校，原為秀林鄉富世國小之西寶分校，因其特殊的地理位置和多元的文化背景，成為花蓮縣唯一實施「學舍制」的國民小學。,886-3-8691040,花蓮縣秀林鄉富世村西寶11號,花蓮縣,秀林鄉,,全年（學生上課時間，請勿打擾）,,121.48202,24.20785,,,,,"['秀林', '太魯閣', '國家', '公園', '開放', '實驗', '學校', '原為', '鄉富', '世國', '小之西', '花蓮縣', '實施', '學舍制', '國民小學', '文化背景', '分校', '前瞻性', '地理位置', '多元', '一所', '森林', '特殊', '教育']"
3211,3211,七星柴魚博物館,,七星柴魚博物館位於花蓮七星潭風景區內，原為廢棄已久的柴魚加工廠，後經空間改造再利用，轉變為具有人文及生態特色的主題館,886-3-8236100,花蓮縣新城鄉大漢村七星街148號,花蓮縣,新城鄉,,[休館日]每週三(寒暑假除外)[營業時間](週一~週五)9:00AM~7:00PM(寒暑假及周末等國定假日)8:00AM~7:00PM僅供參考，一切資訊以官方網站為主。,,121.62935,24.02681,,50元(每張/每人),,,"['柴魚', '七星', '館位', '花蓮', '風景區', '原為', '廢棄', '經空間', '轉變', '生態', '主題', '博物', '人文', '已久', '改造', '特色', '加工']"
3212,3212,花蓮縣石雕博物館,,花蓮縣因天然地形之利，得天獨厚地擁有豐富的礦石資源，並成為國內石雕藝術的大本營，花蓮縣石雕博物館是全國首座以石材作為特色的「主題式博物館」，不但為台灣石雕藝術發展史編寫出一頁新的篇章，同時也為台灣發展地方文化產業的最佳實踐。,886-3-8227121,花蓮縣花蓮市文復路6號,花蓮縣,花蓮市,,週一~週日9:00AM~5:00PM休館日：春節、清明節、端午節、中秋節及換展作業（以館方公告為準）,,121.62833,23.98949,,全票:20元(一般民眾)半票:10元軍警學生(需出示證件、20人以上團體)免費:花蓮縣民(需出示證件)、65歲以上長者、120公分以下兒童、身心障礙持有證明者、榮譽志工持有證明者,,,"['石雕', '花蓮縣', '藝術', '台灣', '博物', '得天', '獨厚地', '豐富', '礦石', '資源', '並成', '國內', '大本營', '全國', '作為', '主題', '發展史', '編寫', '一頁', '同時', '發展', '產業', '實踐', '新的篇章', '石材', '首座', '最佳', '地形', '特色', '天然', '不但', '文化', '地方']"
3213,3213,石藝大街,,石藝大街集結各類石材藝品，有臺灣玉、東海岸玉石、水晶等共同展售，配合整體景觀的規劃，讓前來的遊客放鬆心情，細細品味石藝大街琳瑯滿目的精美石材藝品。,886-3-8353730,花蓮縣花蓮市廣東街326號,花蓮縣,花蓮市,,每日14:00~22:30,,121.60937,23.97377,,免費,,,"['石藝', '藝品', '石材', '大街', '集結', '各類', '灣玉', '展售', '整體', '景觀', '規劃', '遊客', '細細', '琳瑯', '品味', '玉石', '精美', '水晶', '海岸', '心情', '配合', '共同', '目的']"
3214,3214,南濱公園,,花蓮南濱公園佔地20公頃餘，著海岸全長920公尺，濱臨太平洋，園內小橋流水，亭榭樓閣，草地間還立有許多海洋生物塑像。公園劃分有椰子園、露營區、騎馬俱樂部、兒童遊樂場,886-3-8322141,花蓮縣花蓮市海濱街,花蓮縣,花蓮市,,公園：全天夜市：每天18:00~隔日01:00,,121.61033,23.96842,,免費,,,"['公園', '花蓮南濱', '20', '公頃', '920', '濱臨', '園內', '小橋', '樓閣', '還立', '劃分', '露營區', '騎馬俱樂部', '兒童', '遊樂場', '亭榭', '海洋生物', '塑像', '椰子', '草地', '流水', '海岸', '太平洋']"
3215,3215,慈濟文化園區(靜思堂),,慈濟文化園區坐落於花蓮市中央路，園區包含了慈濟醫學中心、靜思堂、靜思竹軒及慈濟大學園區，凝聚呈現出慈濟證嚴上人致力「慈善、醫療、教育、文化」四大志業的精神,886-3-8561825,花蓮縣花蓮市中央路三段701號至707號,花蓮縣,花蓮市,,非營業場所，請事先洽詢,,121.59322,23.99462,,無,,,"['慈濟', '園區', '花蓮市', '醫學', '靜思堂', '靜思', '竹軒', '大學園區', '現出', '慈濟證', '嚴上', '醫療', '志業', '文化', '致力', '凝聚', '慈善', '四大', '包含', '教育', '精神', '中央', '中心']"
3216,3216,錐麓古道,,錐麓古道原為日治時期開鑿的合歡越嶺道路的一部份，如今合歡越嶺古道的許多路段已開築為中部橫貫公路，錐麓古道是原貌保存較好的一段。錐麓古道在海拔700~800公尺左右,886-3-8621100,花蓮縣秀林鄉於中橫公路178K之處,花蓮縣,秀林鄉,,6:00-18:00,,121.56659,24.17279,,請提前申請入園及入山證，開放名額：平日96人、例假日156人。,,,"['古道', '錐麓', '合歡', '越嶺', '原為', '日治', '時期', '開鑿', '開築', '橫貫', '700', '800', '原貌', '路段', '一部', '保存', '海拔', '中部', '道路', '公路', '如今', '左右']"
3217,3217,布洛灣遊憩區,,布洛灣遊憩區位於中橫燕子口附近的布洛灣台地上，東距太魯閣9公里，西到天祥約10公里。太魯閣國家公園管理處費時3年規劃、闢建，以山地文物的保存與展示為主題,886-3-8621100,花蓮縣秀林鄉於中橫燕子口附近的布洛灣臺地上,花蓮縣,秀林鄉,,泰雅工藝展示館：9：00-16：00(每月第一、第三週週一休館),,121.57302,24.17065,,免費，解說服務預約：03-8621100(轉804),,,"['太魯閣', '公里', '布洛灣遊', '憩區位', '中橫', '布洛灣', '東距', '天祥約', '國家', '公園', '處費時', '規劃', '闢建', '為主題', '西到', '燕子', '台地', '文物', '展示', '保存', '山地', '管理']"
3218,3218,綠水合流,,綠水步道，綠水曾是太魯閣族人的陀優恩部落，現今的地質地形展示館，早年相繼作為花蓮縣政府太魯閣風景區管理所、太魯閣國家公園管理處、及太魯閣警察隊的辦公室,886-3-8691466,花蓮縣秀林鄉中橫公路172公里處,花蓮縣,秀林鄉,,建議白天前往,,121.50914,24.18056,,合流露營區需收帳台營位的費用，請洽承租廠商,,,"['太魯閣', '綠水步', '綠水', '優恩', '現今', '地質', '相繼作', '花蓮縣', '風景區', '國家', '公園', '公室', '管理所', '族人', '警察', '展示', '早年', '部落', '地形', '管理', '政府']"
3219,3219,蓮花池,,蓮花池是太魯閣國家公園區域內唯一的天然高山湖泊，海拔高度1180公尺，日治時期太魯閣族人稱它為『天潭』，後因池中開滿布袋蓮，遂更名為蓮花池,886-3-8621100,花蓮縣秀林鄉中橫公路,花蓮縣,秀林鄉,,全年開放（若有颱風訊息，請詢問太館處）,,121.49504,24.21552,,免費,,,"['花池', '太魯閣', '國家', '公園', '區域', '1180', '日治', '時期', '天潭', '因池', '開滿', '為蓮', '海拔高度', '布袋', '族人', '更名', '湖泊', '高山', '天然']"
3220,3220,梅園竹村步道,,梅園竹村步道 ，全長約12.4Km，是梅園、竹村對外聯繫的交通要道，路徑沿大沙溪左岸的石壁開鑿，沿途多吊橋可欣賞溪流景觀。,886-3-8691466,花蓮縣秀林鄉中橫公路迴頭彎處,花蓮縣,秀林鄉,,非營利場所,,121.48304,24.21378,,非營利場所,,,"['梅園', '竹村步', '12.4', 'Km', '竹村', '路徑', '沿大沙溪', '開鑿', '多吊橋', '可欣賞', '景觀', '溪流', '石壁', '交通要道', '左岸']"
3221,3221,布拉旦風景區(三棧),,「布拉旦風景區（三棧溪）」有「小太魯閣」之稱，位處太魯閣國家公園範圍內，以三棧南溪為主流，而後在三棧村附近和北溪會合出海，注入太平洋。,886-3-8621100,花蓮縣秀林鄉三棧路,花蓮縣,秀林鄉,,全天，建議於白天前往。,,121.60642,24.10426,,免費，但須申請入山證,,,"['三棧', '風景區', '小太魯閣', '之稱', '位處', '太魯閣', '國家', '公園', '範圍', '以三棧', '而後在', '會合', '北溪', '南溪', '布拉', '出海', '主流', '太平洋', '注入']"
3222,3222,慕谷慕魚,,慕谷慕魚位於花蓮縣秀林鄉銅門村，面積涵蓋木瓜溪及其支流清水溪，源自能高山的清水溪又稱能高清水溪，溪長40公里，由大理石組成的河床為其特色，清水溪溪水呈翠綠色，此處又有翡翠谷的原始山林美景，故有著「小天祥」的美稱,886-3-8642157,花蓮縣秀林鄉銅門村榕樹一鄰二號(仁壽橋的橋頭),花蓮縣,秀林鄉,,為山地管制區，需申請入山證才得以進入入山時間：上午梯次：7:30/下午梯次：12:00,,121.49055,23.96927,,為山地管制區，需申請入山證,,,"['清水溪', '木瓜溪', '秀林', '慕谷', '慕魚位', '花蓮縣', '鄉銅門村', '面積', '涵蓋', '溪長', '40', '組成', '呈翠綠色', '此處', '翡翠谷', '小天祥', '美稱', '溪水', '美景', '源自', '故有', '山林', '河床', '大理石', '高山', '支流', '原始', '特色', '公里', '及其']"
3223,3223,白楊步道(水簾洞),,水簾洞主要成因為進行立霧溪水力發電計畫時，於修築此段隧道不慎挖破地下水脈，於是地下水循著岩石裂隙流出不曾間斷,886-3-8621100,花蓮縣秀林鄉天祥白楊步道,花蓮縣,秀林鄉,,步道為安全性考量，開放狀況不定，遊客須提前向天祥管理站查詢詳細資訊後，再動身前往,,121.49027,24.18474,,免費,,,"['地下水', '水簾洞', '進行', '立霧', '發電計', '畫時', '修築此', '挖破', '循著', '間斷', '裂隙', '不慎', '水力', '成因', '隧道', '岩石', '流出', '不曾', '主要']"
3224,3224,鐵道文化園區,,鐵道文化園區被譽為為台灣僅存最完整的窄軌鐵道基地遺址，其景觀與西部火車幹線系統截然不同，且基地位處花蓮市中心,886-3-8338061,花蓮縣花蓮市中山路71號,花蓮縣,花蓮市,,週二至週六 上午08:30~12:00，下午13:30~1700休館日:週一、週日及國定例假日預約：20人以上團體可預約導覽,,121.61074,23.97439,,免費參觀,,,"['鐵道', '園區', '台灣', '僅存', '軌鐵道', '遺址', '其景觀', '火車', '幹線', '系統', '位處', '花蓮', '截然不同', '市中心', '完整', '西部', '文化']"
3225,3225,舊鐵道文化商圈,,花蓮市舊鐵道是昔日花東鐵路穿過花蓮市區至海邊火車總站的一段鐵道，全長約1.8公里，1979年北迴鐵路通車後，交通重心轉移，舊鐵道失去原有功能而逐漸隱沒在雜亂的市區中,886-3-8322141,花蓮縣花蓮市中正路與成功街交叉口,花蓮縣,花蓮市,,商圈店家約下午至晚上十點營業，例假日、寒暑假會延長,,121.60749,23.97739,,無,,,"['舊鐵道', '市區', '花蓮市', '花東', '鐵路', '過花蓮', '海邊', '火車', '總站', '鐵道', '1.8', '1979', '年北', '車後', '轉移', '逐漸', '雜亂', '路通', '昔日', '重心', '原有', '失去', '公里', '交通', '功能']"
3226,3226,南安瀑布,,玉里鎮沿著台30號公路往西走，可以看見約50公尺高的南安瀑布，垂掛在路旁的山壁上。氣勢磅礡的南安瀑布，是到瓦拉米步道必經過的景點,886-3-8887560,花蓮縣卓溪鄉卓清村清水83-3號,花蓮縣,卓溪鄉,,全年開放（颱風時期，請聯絡管理單位）,,121.2478,23.31174,,免費,,,"['南安', '瀑布', '玉里鎮', '沿著台', '30', '50', '垂掛', '氣勢', '米步', '必經過', '景點', '瓦拉', '山壁', '往西', '路旁', '公路']"
3227,3227,玉山國家公園管理處,,玉山國家公園管理處位在南投縣水里鄉，處於濁水溪與水里溪匯流處的台地，擁有絕佳的觀景環境，可遠眺山巒峻谷及晨曦與晚霞,886-3-8880973,花蓮縣卓溪鄉卓清村南安83號之3,花蓮縣,卓溪鄉,,09:00~16:30休館日：每月第二個星期二，遇假日順延一天,,121.25942,23.30281,,免費,,,"['國家', '公園', '處位', '縣水里', '水溪', '水里溪', '匯流處', '絕佳', '觀景', '環境', '可遠眺', '山巒峻', '谷及', '南投', '晨曦', '晚霞', '玉山', '台地', '管理']"
3228,3228,七星潭自行車道,,兩潭自行車道的有一段瀕臨太平洋，因為連接鯉魚潭及七星潭而稱為兩潭自行車道，大多數人會從南濱公園為起點，沿途行經北濱公園、曙光橋、花蓮鳥踏石公園至花蓮港,886-3-8221711,花蓮縣花蓮市北端,花蓮縣,新城鄉,,全年開放,,121.63197,24.02674,,無,,,"['兩潭', '車道', '公園', '自行', '瀕臨', '因為', '連接', '魚潭及', '數人會', '南濱', '起點', '行經', '北濱', '花蓮鳥', '石公園', '花蓮港', '七星', '曙光', '太平洋', '大多']"
3229,3229,東海岸遊客服務中心,,沿著台11線走，順著蜿蜒的道路來到東海岸風景區最北端的花蓮遊客中心，坐落於山坡上的遊客中心，內部設有全區自然、人文資源及東部海岸沿線旅遊據點,886-3-8671326,花蓮縣壽豐鄉鹽寮村大坑5號,花蓮縣,壽豐鄉,,上午8:30起至下午5時，每年只有除夕休館簡報放映時間：上午9、10、11時，下午13:30、14:30、15:30、16:30分播放,,121.60304,23.90452,,免費,,,"['海岸', '沿著台', '11', '順著', '風景區', '花蓮遊客', '遊客', '內部', '全區', '資源', '東部', '沿線', '旅遊據點', '中心', '北端', '蜿蜒', '人文', '山坡', '道路', '自然']"
3230,3230,富源森林遊樂區,,富源國家森林遊樂區被富源溪所貫穿，有四通八達的環山步道，最深處為龍吟吊橋、富源吊橋、龍吟瀑布，十分清幽，集賞鳥、賞蝶、森林浴與泡湯為一體，提供遊客多樣化的遊憩體驗,886-3-8812377,花蓮縣瑞穗鄉富源村廣東路161號,花蓮縣,萬榮鄉,,上午8：00至下午5：00止,,121.35412,23.58893,,假日／非假日全票NT$ 100元；假日／非假日優待票NT$ 60元◎以上費用僅提供參考，請以現場公告為準，不另行通知！,,,"['富源', '龍吟', '吊橋', '四通', '國家', '遊樂區', '溪所貫', '八達', '環山步', '處為', '集賞', '賞蝶', '森林浴', '湯為', '一體', '遊客', '多樣化', '遊憩', '體驗', '清幽', '最深', '瀑布', '森林']"
3231,3231,保安宮,,嘉里村的保安宮主神為玉皇上帝，是漁民從宜蘭縣頭城鎮草嶺的天公廟「慶雲宮」迎回供奉，建廟初期，以茅草為頂，土角築壇，直到1952年由信士游貽鐘及當時廟祝陳阿樹發動地方信眾重建，至1953年底始竣工落成,886-3-8811306,花蓮縣瑞穗鄉富民村239號,花蓮縣,瑞穗鄉,,全天,,121.35099,23.4771,,免費,,,"['信士', '漁民', '宜蘭', '縣頭', '城鎮', '草嶺', '慶雲宮', '迎回', '建廟', '土角築壇', '1952', '游貽鐘', '阿樹', '發動', '信眾', '1953', '天公', '嘉里', '主神', '玉皇', '茅草', '落成', '供奉', '保安', '竣工', '上帝', '重建', '初期', '直到', '年底', '地方']"
3232,3232,鶴岡文旦觀光果園,,鶴岡村位於花蓮縣瑞穗鄉東側的山坡地上，隔著富源溪與瑞穗市街遙遙相對。民國50年代，這兒曾以「鶴岡紅茶」揚名海外，但因市場條件的轉變，鶴岡紅茶的銷售日益蕭條,886-3-8872598,花蓮縣瑞穗鄉鶴岡村280號,花蓮縣,瑞穗鄉,,請電洽詢問，手機：0932-655707,,121.39894,23.48455,,,,,"['鶴岡紅', '瑞穗', '鶴岡村位', '花蓮縣', '鄉東側', '隔著', '市街', '遙遙', '相對', '民國', '50', '這兒', '揚名', '因市場', '條件', '轉變', '銷售', '蕭條', '富源', '山坡', '日益', '海外', '地上', '年代']"
3233,3233,虎頭山步道,,虎頭山原名為「打馬燕山」，為中央山脈中段脊嶺丹大山支脈延伸突出的稜脈，因山頂有一巨石，有如伏虎傲踞山頭，故俗稱「虎頭山」,886-3-8872222,花蓮縣瑞穗鄉西瑞北道路,花蓮縣,瑞穗鄉,,全天,,121.35378,23.45915,,,,,"['虎頭山', '打馬', '山脈', '脊嶺丹', '支脈', '因山頂', '傲踞', '山頭', '故俗', '伏虎', '巨石', '有如', '中段', '大山', '燕山', '原名', '延伸', '突出', '中央']"
3234,3234,瑞穗溫泉,,瑞穗溫泉，又稱外溫泉，西元1919年，日人已開發為警察招待所，建有公共浴場，名滴翠閣。,886-3-8872222,花蓮縣瑞穗鄉循往臺九線至瑞穗，右轉至溫泉路，直行可抵達。,花蓮縣,萬榮鄉,,各業者不同,,121.34465,23.49542,,,,,"['溫泉', '稱外', '西元', '1919', '已開', '發為', '浴場', '瑞穗', '日人', '滴翠', '招待所', '警察', '公共', '建有']"
3235,3235,紅葉溫泉,,紅葉溫泉有兩處，另一處在台東縣延平鄉，紅葉溪蜿蜒的流經台東縱谷，為台灣最長的溫泉河，形成了紅葉谷這處沖積平原,886-3-8872176,花蓮縣萬榮鄉紅葉村188號,花蓮縣,萬榮鄉,,全天,,121.32555,23.49059,,,,,"['紅葉', '溫泉', '兩處', '東縣', '紅葉溪', '流經', '台東', '縱谷', '台灣', '最長', '紅葉谷', '這處', '泉河', '延平', '蜿蜒', '平原']"
3236,3236,瑞穗牧場,,以鮮奶暢銷到全臺各地的瑞穗牧場，有著餐飲部、露天咖啡座等設施，來到這裡不僅可喝到產地現榨、現煮的鮮奶，還能看見成群的乳牛或鴕鳥悠閒漫步在草地上，與孩子一起拿牧草親手餵食牠們，而遼闊的園區可以讓小朋友盡情玩耍、跑跳，是個適合親子同遊的景點,886-3-8876611,花蓮縣瑞穗鄉舞鶴村6鄰157號,花蓮縣,瑞穗鄉,,全年無休,,121.34668,23.48004,,,,,"['跑跳', '以鮮奶', '暢銷', '牧場', '著餐', '飲部', '設施', '產地', '現榨', '現煮', '鮮奶', '鴕鳥', '悠閒', '親手', '遼闊', '園區', '盡情', '適合', '親子', '同遊', '景點', '瑞穗', '乳牛', '小朋友', '漫步', '玩耍', '牧草', '露天', '草地', '成群', '咖啡', '各地', '孩子', '一起']"
3237,3237,青蓮寺,,寺內除奉祠釋迦牟尼彿、媽祖、關聖帝君等神，最為當地居民津津樂道的是寺內還供奉著一個年代久遠且據傳曾裝過佛祖神像而被視為該寺鎮寺之寶的『竹籠』。每年的佛祖聖誕日，青蓮寺皆有大型浴佛儀式，農曆春節期間，也會有舉辦大規模的誦經祈福活動，另還有「城隍夜尋」民俗活動。,886-3-8872128,花蓮縣瑞穗鄉美村仁愛路109號,花蓮縣,瑞穗鄉,,全天,,121.39135,23.49098,,,,,"['活動', '佛祖', '浴佛', '祠釋', '迦牟尼', '媽祖', '關聖', '最為', '當地', '樂道', '內還', '著一個', '久遠且', '裝過', '視為', '鎮寺', '之寶的', '竹籠', '聖誕日', '青蓮寺', '儀式', '春節', '期間', '舉辦', '大規模', '誦經', '夜尋', '津津', '帝君', '城隍', '祈福', '民俗', '神像', '供奉', '居民', '大型', '年代']"
3238,3238,秀姑巒溪泛舟中心,,每到夏天泛舟旺季，從瑞穗大橋至長虹橋，全程24公里的泛舟河段上，只見一艘艘紅艷艷的橡皮艇將整段河道妝點得綺麗動人。20多處難度不一的激流與險灘，帶給泛舟遊客充滿驚險與刺激的難忘旅遊經驗，而秀姑巒溪沿途的峽谷與奇岩等自然美景，無不烙印在泛舟客的心頭，久久難以忘懷。,886-3-8875400,花蓮縣瑞穗鄉中山路三段215號,花蓮縣,瑞穗鄉,,24,,121.40161,23.48813,,,,,"['泛舟', '奇岩', '大橋', '至長', '虹橋', '24', '只見', '紅艷艷', '妝點', '綺麗動', '20', '多處', '難度', '險灘', '帶給', '遊客', '充滿', '驚險', '旅遊', '經驗', '而秀', '姑巒', '峽谷', '心頭', '難以', '忘懷', '瑞穗', '整段', '橡皮艇', '烙印', '美景', '激流', '河段', '全程', '久久', '一艘', '旺季', '河道', '夏天', '公里', '刺激', '自然']"
3239,3239,奇美原住民文物館,,本館為91年興建，經各方人士多年的努力於96年10月13日開館，為二層樓建築，一樓有文物展示區、特展區、庫房、辦公室及電腦閱讀教室；二樓為陽台區，規劃為部落餐廳，本館明確定位為「全鄉性文物館」，轄內各部落、原住民團體有同等參與權利，除保有文物館原有特色外，將逐步辦理各式特展與研習會，結合秀姑巒溪生態體驗，以豐富文物館內涵。,886-3-8991221,花蓮縣瑞穗鄉奇美村5鄰2-10號,花蓮縣,瑞穗鄉,,,,121.44625,23.49169,,,,,"['特展', '本館', '文物', '部落', '原住民', '91', '年興建', '96', '13', '開館', '為二層', '建築', '一樓', '庫房', '電腦', '閱讀', '二樓', '為陽', '台區', '規劃', '餐廳', '明確', '全鄉', '性文物', '團體', '參與', '權利', '辦理', '研習', '結合秀', '姑巒', '生態', '體驗', '以豐富', '內涵', '公室', '各式', '保有', '教室', '同等', '展示', '各方', '定位', '原有', '特色', '努力', '多年', '逐步', '人士']"
3240,3240,掃叭石柱,,英國的巨石陣、復活島的摩艾巨石像都屬於神秘的巨石文化，而在瑞穗舞鶴台地上，也有一處巨石文化，重達好幾公噸的石柱矗立在地面，那就是Satokoay （舞鶴）遺址，也被稱做掃叭石柱。舞鶴遺址至今已有3千多年的歷史，屬於史前文化的遺跡，有著許多當地阿美族與撒奇萊雅族的傳說與謎團，讓這兩根高聳的石柱充滿許多的想像空間。,886-3-8875306,花蓮縣瑞穗鄉舞鶴村北端花東公路臺九線274.8K,花蓮縣,瑞穗鄉,,全天,,121.35961,23.47067,,,,,"['舞鶴', '巨石', '石柱', '遺址', '文化', '阿美族', '英國', '活島', '摩艾', '都屬', '重達', '幾公噸', 'Satokoay', '掃叭', '歷史', '遺跡', '當地', '奇萊雅族', '謎團', '這兩根', '高聳', '充滿', '空間', '瑞穗', '至今已有', '千多年', '史前', '矗立', '想像', '台地', '神秘', '地面']"
3241,3241,北回歸線地標,,北回歸線標誌公園位在瑞穗舞鶴台地，白色日晷造型的北回歸線標誌，是旅客經過舞鶴台地時必拍照的景點,886-3-8875306,花蓮縣瑞穗鄉舞鶴村臺九線約275.5K,花蓮縣,瑞穗鄉,,全天,,121.35828,23.4655,,,,,"['北回', '歸線', '標誌', '舞鶴', '台地', '公園位', '時必', '景點', '瑞穗', '日晷', '拍照', '旅客', '造型', '白色']"
3242,3242,舞鶴觀光茶園,,海拔100至300公尺的舞鶴台地，依傍高聳的中央山脈，隨風拂來秀姑巒溪與紅葉溪的濕潤水氣，宜人的氣候適合茶樹生長，是天鶴茶的產地，也是小葉綠蟬生長的地點,886-3-8870222,花蓮縣瑞穗鄉中正南路二段336號,花蓮縣,瑞穗鄉,,請電洽詢問。,,121.35465,23.44788,,,,,"['生長', '100', '300', '舞鶴', '高聳', '山脈', '隨風', '拂來秀', '姑巒', '紅葉溪', '濕潤', '水氣', '氣候', '適合', '茶樹', '天鶴茶', '產地', '小葉', '綠蟬', '地點', '依傍', '宜人', '台地', '海拔', '中央']"
3243,3243,月眉山步道,,月眉山位於月眉部落，因村庄形如月又似眉，因得其名。西隔花蓮溪與中央山脈相望，東眺太平洋，是海岸山脈北起第一座擁有一等三角點的山岳，也是海岸山脈上唯一的國家步道。步道有南北二處入口，總長4.8公里，三角點位於中間2.4公里處,886-3-8527526,花蓮縣壽豐鄉193線到月眉段旁的產業道路,花蓮縣,壽豐鄉,,24HR,,121.54226,23.8141,,,,,"['山脈', '三角', '海岸', '步道', '公里', '月眉', '似眉', '因得', '西隔', '花蓮溪', '東眺', '點的', '國家步', '二處', '總長', '4.8', '點位', '中間', '2.4', '眉山', '山岳', '其名', '形如', '第一座', '相望', '一等', '北起', '入口', '村庄', '部落', '太平洋', '南北', '中央']"
3244,3244,豐田碧蓮寺（中山公園）,,碧蓮寺位於豐裡村(日治時代豐田移民村中里所在地)南方接近豐坪村(日治時代豐田移民村大平所在地)交界的地方，日治時代森本聚落所在地,886-3-8653579,花蓮縣花蓮市花蓮縣豐裡村民權街一號,花蓮縣,壽豐鄉,,03-8653579,,121.50329,23.84147,,,,,"['日治', '時代', '豐田', '所在地', '移民', '碧蓮寺位', '豐裡村', '村中里', '豐坪村', '大平', '日治時', '代森本', '聚落', '交界', '南方', '接近', '地方']"
3245,3245,鯉魚山步道,,內湖人氣極佳的三座郊山包括忠勇山、鯉魚山及圓覺尖山，又叫內湖三尖。鯉魚山位於忠勇山東南方，兩山連稜，有顆四等三角點，整座山勢呈頭高尾低，因酷似鯉魚而得名,886-3-8641691,花蓮縣壽豐鄉池南村環潭北路100號,花蓮縣,壽豐鄉,,24HR,,121.5082,23.92282,,,,,"['鯉魚', '忠勇', '高尾', '內湖', '人氣', '極佳', '郊山', '山及', '圓覺', '湖三尖', '山位', '山東', '兩山連', '有顆', '山勢', '呈頭', '尖山', '四等', '三座', '整座', '酷似', '三角', '得名', '南方', '包括']"
3246,3246,富興步道,,富興步道海拔高度約320公尺，屬低海拔山區，步道穿過竹林、相思樹林，其中又以桂竹林面積最大，走出綠廊道也代表登上了最高點,886-3-8811658,花蓮縣瑞穗鄉富源村193縣道77.5-78公里處,花蓮縣,瑞穗鄉,,24HR,,121.40299,23.57584,,,,,"['竹林', '步道', '富興步', '320', '屬低', '山區', '穿過', '樹林', '以桂', '面積', '廊道', '海拔高度', '相思', '登上', '海拔', '走出', '最高', '代表', '最大']"
3247,3247,富源步道,,區內擁有全台灣最大的樟樹林，園區規劃多條步道，有環溪、生態、芬多精步道，彼此相連形成步道網絡；沿途有瀑布、吊橋、巨石、蝙蝠洞等景觀,886-3-8812377,花蓮縣瑞穗鄉富源村廣東路161號,花蓮縣,萬榮鄉,,24,,121.35489,23.58871,,,,,"['步道', '蝙蝠洞', '區內', '全台灣', '樟樹林', '園區', '規劃', '條步', '環溪', '生態', '芬多', '精步', '相連', '網絡', '吊橋', '景觀', '巨石', '瀑布', '彼此', '最大']"
3248,3248,安通越嶺道西段步道,,第一條跨越海岸山脈連通東部海岸及花東縱谷的道路，為清朝至日治時期通婚、傳教、挑貨的重要道路,886-3-8325141,花蓮縣玉里鎮富祥橋尾(約22-22.5公里處)，左轉產業道路順行,花蓮縣,富里鄉,,24HR，管理單位：花蓮林區管理處,,121.35249,23.2786,,,,,"['海岸', '道路', '山脈', '連通', '東部', '及花東', '縱谷', '日治', '時期', '傳教', '挑貨', '通婚', '跨越', '清朝', '第一', '重要']"
3249,3249,八通關越道鹿鳴吊橋步道,,八通關古道鹿鳴吊橋段步道位於花蓮縣卓溪鄉，為日治時期八通關越嶺道的一部份。全程都在闊葉林中，緩坡好走，沿途可觀賞亞熱帶植物，欣賞拉庫拉庫溪壯闊之美，體驗特殊吊索橋。,886-3-8885450,花蓮縣玉里鎮仁愛路臺30縣2.5公里處,花蓮縣,卓溪鄉,,依照管理單位當日公告為主,,121.25354,23.31774,,,,,"['八通', '卓溪', '吊索', '鹿鳴', '吊橋', '段步', '花蓮縣', '日治', '時期', '關越', '闊葉', '緩坡', '可觀', '賞亞', '熱帶', '欣賞', '庫拉庫', '壯闊', '之美', '體驗', '古道', '林中', '全程', '一部', '植物', '特殊']"
3250,3250,台肥海洋深層水園區,,台肥花蓮深層海水園區為全台灣唯一全年穩定供應深層海水之生產基地。目前園區規劃有亞洲最大、也是全台唯一以海洋深層水為主題製水的觀光休閒園區以及深足癒步道,886-3-8236168,花蓮縣花蓮市華東15號,花蓮縣,花蓮市,,週一至週日 9:00-17:00。,,121.63867,24.00789,,,,,"['深層', '園區', '海水', '步道', '台肥', '花蓮', '全台灣', '穩定', '供應', '之生產', '規劃', '有亞洲', '水為', '深足', '全台', '海洋', '全年', '最大']"
3251,3251,香又香便當調查局,,香又香便當調查局位於美崙工業區內，調查局幹員將引領各位進入神秘的食品營養核心基地，從各項鑑識分析及蛛絲馬跡的調查中，一起尋找製作一份營養安心的美味便當究竟需經過多少科學實驗與科技製研的關鍵秘密,886-3-8228111,花蓮縣花蓮市美工路15號,花蓮縣,花蓮市,,1.上午08:30~12:00；下午14:00~17:00（最後入館時間：16：00),,121.6316,24.0138,,免費,,,"['營養', '當調查', '局位', '美崙', '工業區', '調查局', '幹員將', '引領', '進入', '各項', '鑑識', '絲馬跡', '調查', '便當', '需經過', '科學', '實驗', '美味', '安心', '各位', '神秘', '秘密', '一份', '究竟', '食品', '核心', '科技', '多少', '一起', '分析']"
3252,3252,東大門國際觀光夜市,,由舊東線鐵路週邊所形成的「東大門商圈」，以東大門夜市為基點相連，銜接百年老店商圈（大禹街、一心街）、伴手禮一條街（中華路）、新港街、節約街以及舊鐵道行人徒步區，具有濃郁的文化氛圍,886-3-0000000,花蓮縣花蓮市六期重劃區(重慶路和中山路口交會處),花蓮縣,花蓮市,,營業時間從下午六點到凌晨十二點左右，客人最多時間在七點至十一點之間。,,121.61158,23.97298,,,,,"['商圈', '由舊', '東線', '鐵路', '週邊', '東大門', '以東大門', '基點', '相連', '銜接', '伴手', '禮一條', '中華路', '節約', '舊鐵道', '濃郁', '氛圍', '老店', '夜市', '新港', '徒步', '大禹', '百年', '一心', '行人', '文化']"
3253,3253,太平洋公園,,花蓮太平洋公園包含南濱段及北濱段。南濱公園依著南濱海岸線建置規劃，保留原始的自然地景，坐在岸邊大顆的石頭上，可遠眺整片太平洋與新月造型的「洄瀾新灣」，在海堤旁，連接兩潭自行車道，公園環境乾淨,886-3-8233820,花蓮縣花蓮市海濱路,花蓮縣,花蓮市,,全天,,121.60796,23.96635,,,,,"['公園', '南濱', '太平洋', '花蓮', '北濱段', '依著', '規劃', '地景', '岸邊', '大顆', '石頭', '可遠眺', '洄瀾', '新灣', '連接', '兩潭', '車道', '環境', '乾淨', '整片', '海堤', '建置', '造型', '海岸', '自行', '新月', '原始', '保留', '包含', '坐在', '自然']"
3254,3254,豐濱天空步道,,緣著斷崖絕壁而建的全新棧道，底端由透明的強化玻璃製成，全長約190公尺，一次僅十人進入，一邊是山景，一邊是藍太平洋，腳下的萬丈深淵更是一覽無遺，驚險程度破表,886-3-8791350,花蓮縣豐濱鄉花東海岸公路,花蓮縣,豐濱鄉,,09:00~17:00(除夕及颱風天公休),,121.49231,23.52244,,門票40元/人停車費:遊覽車150元、小客車50元、機車20元,,,"['一邊', '緣著斷', '絕壁', '棧道', '強化', '190', '僅十人', '進入', '腳下', '萬丈', '深淵', '驚險', '破表', '底端', '山景', '全新', '透明', '玻璃', '太平洋', '程度', '一次']"
3255,3255,崇德海灘,,沿著步道步行而下，可抵崇德海灘。景觀平台與步道沿線均設置資源解說系統，遊客可獲得相關的景觀資訊與植物介紹。步道全線由石板鋪設而成，步行約30分鐘即可抵達終點，遊客們可坐在終點平台的階梯上欣賞白浪拍岸與清水斷崖的宏偉雄姿,886-3-8621201,花蓮縣秀林鄉崇德村,花蓮縣,秀林鄉,,全天候開放,,121.39272,24.10413,,,,,"['步道', '景觀', '終點', '步行', '平台', '沿著步', '可抵', '海灘', '沿線', '設置', '資源', '解說', '系統', '遊客', '獲得', '相關', '介紹', '全線', '設而成', '30', '分鐘', '抵達', '遊客們', '階梯', '欣賞', '拍岸', '斷崖', '宏偉', '雄姿', '崇德', '白浪', '石板', '清水', '即可', '植物', '坐在']"
3256,3256,小錐麓步道,,小錐麓步道位於砂卡礑隧道外側，緊鄰立霧溪下游的邊坡上，這是太魯閣國家公園管理處闢建完成的步道，從太魯閣台地走小錐麓步道，可以直通砂卡礑步道口，再接著走砂卡礑步道,886-3-8621201,花蓮縣秀林鄉砂卡礑隧道,花蓮縣,秀林鄉,,08:00-17:30,,121.37058,24.09398,,,,,"['步道', '砂卡', '太魯閣', '小錐麓', '步道位', '外側', '緊鄰', '立霧', '邊坡', '這是', '國家', '公園', '處闢', '走小錐麓', '接著', '道口', '直通', '台地', '隧道', '下游', '完成', '管理']"
3257,3257,匯德步道,,原是蘇花公路舊道，匯德隧道完工通車後，擷取一段舊道改為人車共用的景觀道路。道路寬闊平緩，可以細細欣賞清水斷崖美景，享受太平洋海風吹拂的暢快，目前已規劃為步道。,886-3-8621100,花蓮縣秀林鄉蘇花公路174號,花蓮縣,秀林鄉,,全天候開放,,121.39256,24.10453,,,,,"['舊道', '道路', '蘇花', '匯德', '通車', '擷取', '改為', '人車', '景觀', '寬闊', '平緩', '細細', '欣賞', '斷崖', '海風', '暢快', '已規劃', '為步', '吹拂', '美景', '共用', '完工', '清水', '隧道', '原是', '太平洋', '享受', '公路']"
3258,3258,大禮大同步道,,大禮與大同部落，為太魯閣族原住民保留地，座落在砂卡礑溪溪谷與清水大山之間的平緩台地上，由於部落並無公路可達，大禮大同步道成為部落對外聯絡的唯一道路，偶而可見流籠頭輸送村民的物資，其餘端賴雙腳循山徑徒步而上，在原始山林中，只有滿天星斗及山巒美景相伴，享受遠離塵囂、反璞歸真的生活，是個遺世獨立的世外桃源,886-3-8621100,花蓮縣秀林鄉太魯閣台地，由得卡倫步道進入,花蓮縣,秀林鄉,,全天候開放,,121.38068,24.10494,,,,,"['部落', '原住民', '大禮', '太魯閣族', '砂卡', '平緩', '並無', '可達', '大禮大', '對外', '聯絡', '流籠', '頭輸', '物資', '其餘端', '賴雙腳', '循山徑', '斗及', '山巒', '遠離', '塵囂', '反璞', '遺世', '獨立', '座落在', '保留地', '世外桃源', '偶而', '溪谷', '徒步', '美景', '相伴', '山林', '大山', '台地', '清水', '大同', '天星', '同步', '村民', '原始', '享受', '道路', '公路', '真的', '生活', '只有']"
3259,3259,親不知子斷崖,,緣著斷崖絕壁而建的全新棧道，底端由透明的強化玻璃製成，全長約190公尺，一次僅十人進入，一邊是山景，一邊是藍太平洋，腳下的萬丈深淵更是一覽無遺，驚險程度破表,886-3-8791350,花蓮縣豐濱鄉台11線新豐隧道外,花蓮縣,豐濱鄉,,09:00-17:00,,121.545564,23.675357,,,,,"['一邊', '緣著斷', '絕壁', '棧道', '強化', '190', '僅十人', '進入', '腳下', '萬丈', '深淵', '驚險', '破表', '底端', '山景', '全新', '透明', '玻璃', '太平洋', '程度', '一次']"
3260,3260,石門班哨角,,位於花蓮豐濱鄉的石門班哨角休憩區，因原為海防部隊的班哨所在地而得名，在班哨廢棄後經重新整治，並設有小燈塔、雙心雕塑、大理石愛心石雕等裝置，距離石門洞、石門休憩區約500公尺，前往石梯坪亦不到4公里，在班哨角可一覽360度海景，是台11線上另一處可休憩之處,886-3-8791350,花蓮縣豐濱鄉台11線60.5公里處,花蓮縣,豐濱鄉,,全天候開放,,121.502539,23.520198,,,,,"['休憩', '哨角', '石門', '花蓮', '豐濱', '石門班', '因原', '部隊', '廢棄後經', '小燈', '雙心', '愛心', '裝置', '距離', '區約', '500', '360', '11', '線上', '之處', '石梯', '海景', '石雕', '海防', '雕塑', '大理石', '整治', '所在地', '得名', '公里', '不到', '重新']"
3261,3261,雲山水溼地生態園區,,自從黑松汽水來這拍攝廣告後一炮而紅的雲山水，有著絕美宛如歐洲明信片上的風景，翠綠的落羽松林倒映在水中，隨著陽光灑落而呈現夢幻的光影變化，加上附近充滿童趣、像城堡般的民宿，讓人彷彿置身於國外，在一旁遼闊廣大的青青草地，更是能讓小朋友盡情奔跑，享受快樂的親子時光,886-3-8656060,花蓮縣壽豐鄉豐坪路二段2巷201弄18號,花蓮縣,壽豐鄉,,08:00-18:00,,121.51547,23.827033,,,,,"['童趣', '自從', '黑松汽水', '這拍', '攝廣告', '而紅', '絕美', '歐洲', '風景', '翠綠', '落羽', '隨著陽', '光灑', '現夢幻', '變化', '充滿', '民宿', '國外', '遼闊', '廣大', '盡情', '快樂', '親子', '時光', '明信片', '倒映在', '一炮', '青青', '小朋友', '置身', '光影', '宛如', '松林', '草地', '奔跑', '城堡', '山水', '般的', '水中', '享受']"
3262,3262,翡翠谷,,翡翠谷位於秀林鄉銅門村，對岸即為慕谷慕魚生態廊道，最為秀麗之風景為沿著木瓜溪河谷旁蜿蜒而行的翡翠谷古道。古道約有二百多年歷史，在早期是太魯閣族人從中央山脈東遷到木瓜溪時之交通要道，沿途風景宜人，是一個具有歷史意義及遊憩價值的觀光景點。,886-3-8642157,花蓮縣秀林鄉銅門村榕樹路，銅門大橋旁,花蓮縣,秀林鄉,,全天候開放,,121.497236,23.965868,,,,,"['木瓜溪', '翡翠谷', '歷史', '古道', '秀林', '鄉銅門村', '對岸', '慕谷', '慕魚', '生態', '最為秀麗', '風景為', '沿著', '太魯閣', '山脈', '東遷', '風景', '意義及', '遊憩', '價值', '二百多年', '廊道', '宜人', '交通要道', '族人', '蜿蜒', '光景', '而行', '河谷', '早期', '中央']"
3263,3263,碧赫潭,,隱身在大加汗部落「碧赫潭」，是萬榮鄉的私房秘境。這片水潭原是田地，由大加汗部落頭目碧赫瓦利斯，挖土捐地並改建為攔水堤，但攔水堤年久潰堤，由碧赫的長子修復，接引山泉水注入池塘，並將池潭命名為「碧赫潭」,886-3-8751114,花蓮縣萬榮鄉明利村,花蓮縣,萬榮鄉,,全天候開放,,121.40174,23.706671,,,,,"['碧赫潭', '攔水堤', '大加', '部落', '山泉水', '隱身', '萬榮', '秘境', '這片', '頭目碧赫', '捐地並', '潰堤', '由碧赫', '並將', '池潭', '瓦利斯', '私房', '接引', '挖土', '水潭', '池塘', '改建', '田地', '命名', '注入']"
3264,3264,吉哈拉艾,,吉拉米代部落位於花蓮縣最南端富里鄉的豐南村，居民以阿美族為主，原先的傳統作物是旱稻，清朝與日據時期接觸水稻的種植技術，此地種植的米種因品質極佳，是日據時期用來進貢天皇的御用米,886-9-75278465,花蓮縣富里鄉豐南村石厝溝,花蓮縣,富里鄉,,08:00-17:00,,121.281945,23.14452,,,,,"['日據', '時期', '吉拉', '阿美族', '米代', '花蓮縣', '富里', '為主', '傳統', '接觸', '種植技術', '種植', '米種', '因品', '質極佳', '進貢', '南村', '旱稻', '最南端', '御用', '天皇', '原先', '作物', '清朝', '水稻', '部落', '居民']"
3265,3265,玉里濕地（啟模濕地公園）,,擁有美麗寧靜的生態景觀的玉里濕地，吸引攝影玩家及喜愛大自然景觀的遊客前來。玉里濕地屬於啟模里範圍，所以又稱「啟模濕地公園」。濕地公園原是環保局為處理玉里鎮廢水而營造的濕地,886-3-8883166,花蓮縣玉里鎮玉里大橋附近,花蓮縣,玉里鎮,,全天候開放,,121.328999,23.344041,,,,,"['濕地', '玉里', '景觀', '啟模', '公園', '美麗寧靜', '生態', '攝影', '遊客', '前來', '地屬', '範圍', '環保局', '處理', '玉里鎮', '廢水', '營造', '玩家', '大自然', '原是', '吸引', '所以']"
3266,3266,大全社區82巷故事街,,「82巷故事街」由邱金鳳阿嬤親手構圖，將農村回憶畫下來，還搭配自創的閩南語打油詩，邱阿嬤靠自學書法學會寫字，而牆上的文字甚至有自創的拼接字體，讓到訪的遊客邊看畫、邊猜字，充滿趣味,886-9-31265898,花蓮縣光復鄉中山路一段82巷,花蓮縣,光復鄉,,全天候開放,,121.416585,23.648324,,,,,"['自創', '82', '邱金鳳', '阿嬤親', '手構', '將農村', '回憶畫', '下來', '南語', '打油', '邱阿嬤靠', '自學書', '法學會', '而牆', '字體', '遊客邊', '看畫', '邊猜', '充滿', '拼接', '趣味', '搭配', '文字', '故事', '甚至']"
3267,3267,樹湖瀑布,,位在壽豐鄉的樹湖村的「樹湖瀑布」，座落在隱密的山林之中，因在樹湖村荖山，所以當地居民多稱為「荖山瀑布」,886-3-8652131,花蓮縣壽豐鄉樹湖村,花蓮縣,壽豐鄉,,全天候開放,,121.461741,23.846023,,,,,"['湖村', '瀑布', '豐鄉', '樹湖', '隱密', '當地', '多稱', '座落在', '山林', '居民', '之中', '所以']"
3268,3268,南華林業文化園區（南華森林公園）,,南華林業文化園區又稱為「南華森林公園」，是林務局南華工作站的所在地，早期是儲木場與製材所，直到1987年伐木作業宣告結束為止。園區內仍然保存當年使用的廠房與機具，剖木機、機車頭與運材鐵道仍然維持原貌，廠房外則能夠看見偌大的儲木池。,886-3-8527526,花蓮縣吉安鄉干城村4鄰吉安路6段117號,花蓮縣,吉安鄉,,09:00-17:00,,121.548452,23.945797,,,,,"['園區', '南華', '廠房', '南華林業', '公園', '林務局', '儲木場', '1987', '作業', '結束', '為止', '機具', '剖木機', '機車頭', '運材', '鐵道', '維持', '外則', '儲木池', '原貌', '工作站', '仍然', '伐木', '偌大', '宣告', '所在地', '保存', '森林', '早期', '直到', '文化', '使用']"
3269,3269,陽光電城,,陽光電城位於花蓮市東大門夜市旁，當時獲中央新台幣2億餘元補助，鋼構的建物上方有1000多片太陽能板,886-3-8310062,花蓮市重慶路572號,花蓮縣,花蓮市,,全天候開放,,121.611006,23.973026,,,,,"['建物', '陽光', '電城位', '花蓮市', '東大門', '新台幣', '億餘元', '補助', '鋼構', '1000', '太陽', '能板', '多片', '夜市', '上方', '中央']"
3270,3270,龍泉親水公園,,隸屬生態親水公園的龍泉親水公園占地約為一千二佰坪，位置坐落於佳山基地聯絡道旁的農地，舊時因灌溉需要而開挖深井，意外發現此地水源充沛，後引進水源開發為休閒親水公園。不但將周邊進行綠美化，種植水生植物，另規劃設計生態溝、吊橋、平臺休憩空間與親水階梯等活動空間。,886-3-8267223,花蓮縣新城鄉佳林村,花蓮縣,新城鄉,,08:00-17:30,,121.603109,24.017313,,,,,"['親水公園', '空間', '水源', '一千二', '隸屬', '生態', '龍泉', '佰坪', '佳山', '聯絡', '農地', '舊時', '而開', '發現', '引進', '開發為', '休閒親', '水公園', '將周邊', '進行', '種植', '規劃', '設計生', '態溝', '吊橋', '親水階梯', '活動', '休憩', '深井', '道旁', '水生植物', '美化', '占地', '充沛', '灌溉', '意外', '不但', '位置', '需要']"
3271,3271,郭子究音樂館,,「郭子究音樂文化館」規劃主軸有二個方向，其一是以「郭子究音樂文化館」展演、經營、體驗等相關設施為主，強調空間的功能性，大致可區分為「社區互動」、「體驗活動」、空間經營」、「藝文展演」等四大項目,886-3-8235466,花蓮市民權七街1巷10號,花蓮縣,花蓮市,,10:00-16:30,,121.624659,23.987299,,,,,"['展演', '郭子究', '音樂', '經營', '體驗', '空間', '規劃', '主軸有', '二個', '相關', '設施', '強調', '可區', '分為', '社區', '互動', '活動', '藝文', '項目', '文化', '功能性', '其一', '四大', '大致', '方向']"
3272,3272,七七高地,,過去做為軍事要塞的七七高地，是個極少數遊客會去的地方，地勢不高，但景色絕美，是一處能夠環景360度看山、看海，俯覽市區視野的景點，因海拔高度77公尺，故又被稱為七七高地,886-3-8227171,花蓮縣壽豐鄉台11線6.5公里處產業道路上,花蓮縣,壽豐鄉,,全天候開放,,121.60762,23.93282,,,,,"['七七', '高地', '過去', '軍事', '極少', '數遊', '客會', '地勢', '絕美', '環景', '360', '看山', '看海', '俯覽', '市區', '視野', '景點', '77', '海拔高度', '要塞', '景色', '不高', '地方']"
3273,3273,將軍府（美崙溪畔日式宿舍）,,美崙溪畔日式宿舍位於花蓮市中正橋旁，這個宿舍群在日本時代原本是提供花蓮港分屯大隊軍官住宿的宿舍群，而在宿舍群內有著一條路─營所通。通過筑紫橋（今中正橋）後，右側斜坡下方的一個小社區，就是營所通,886-3-8227121,花蓮市中正路622巷6號,花蓮縣,花蓮市,,全天候開放,,121.613226,23.980629,,,,,"['宿舍', '營所通', '中正', '溪畔', '美崙', '花蓮市', '橋旁', '這個', '群在', '時代', '花蓮港分', '屯大隊', '軍官', '群內', '通過筑', '紫橋', '右側', '社區', '日式', '斜坡', '住宿', '下方', '原本', '日本']"
3274,3274,洄瀾灣開心農場,,台開心農場騎馬，餵食動物 (梅花鹿、孔雀、羊、公雞、天鵝等)都很有趣，限定季節還會有整片向日葵可以參觀。寵物也可以帶來玩，停留時間約1小時，結束後還可以接續台開心農場附近景點貨櫃星巴克、新天堂樂園超有趣！,886-3-8420889,花蓮縣吉安鄉華中路11-10號,花蓮縣,吉安鄉,,08:00-17:30,,121.59872,23.937236,,,,,"['農場', '有趣', '星巴克', '台開心', '騎馬', '食動物', '公雞', '天鵝等', '季節', '還會', '參觀', '寵物', '帶來', '時間', '小時', '結束後還', '接續', '開心', '景點', '貨櫃', '新天堂', '樂園', '整片', '梅花鹿', '向日葵', '孔雀', '限定', '停留']"
